{"type":"Topology","objects":{"states":{"geometries":[{"properties":{"STATE_NAME":"New South Wales"},"type":"MultiPolygon","arcs":[[[0]],[[-95,1,-93,2,-91,3,-89,4,-87,5,-85,6,-83,7,-81,8,-79,9,-77,10,-75,11,-73,12,-71,13,-69,14,-67,15,-65,16,-63,17,-61,18,-59,19,-57,20,-55,21,-53,22,-132,23,-130,24,-128,25,-126,26,-124,27,-122,28,-120,29,-118,30,-116,31,-114,32,-112,33,-110,34,-108,35],[36],[37],[38],[39],[40],[41],[42],[43],[44],[45],[46,-526,47,-524,48,-522,49,-520]],[[50]]],"id":"feature_0"},{"properties":{"STATE_NAME":"Victoria"},"type":"MultiPolygon","arcs":[[[-240,51,52,53,54,55,56,57,58,59,60,61,62,63,64,65,66,67,68,69,70,71,72,73,74,75,76,77,78,79,80,81,82,83,84,85,86,87,88,89,90,91,92,93,94,95],[96]],[[97]],[[98]],[[99]],[[100]],[[101]],[[102]],[[103]],[[104]],[[105]],[[106]]],"id":"feature_1"},{"properties":{"STATE_NAME":"Queensland"},"type":"MultiPolygon","arcs":[[[107,108,109,110,111,112,113,114,115,116,117,118,119,120,121,122,123,124,125,126,127,128,129,130,131,132,-441,133],[134],[135],[136],[137],[138],[139],[140],[141]],[[142]],[[143]],[[144]],[[145]],[[146]],[[147]],[[148]],[[149]],[[150]],[[151]],[[152]],[[153]],[[154]],[[155]],[[156]],[[157]],[[158]],[[159]],[[160]],[[161]],[[162]],[[163]],[[164]],[[165]],[[166]],[[167]],[[168]],[[169]],[[170]],[[171]],[[172]],[[173]],[[174]],[[175]],[[176]],[[177]],[[178]],[[179]],[[180]],[[181]],[[182]],[[183]],[[184]],[[185]],[[186]],[[187]],[[188]],[[189]],[[190]],[[191]],[[192]],[[193]],[[194]],[[195]],[[196]],[[197]],[[198]],[[199]],[[200]],[[201]],[[202]],[[203]],[[204]],[[205]],[[206]],[[207]],[[208]],[[209]],[[210]],[[211]],[[212]],[[213]],[[214]],[[215]],[[216]],[[217]],[[218]],[[219]],[[220]],[[221]],[[222]],[[223]],[[224]],[[225]],[[226]],[[227]],[[228]],[[229]],[[230]],[[231]],[[232]],[[233]],[[234]],[[235]],[[236]],[[237]],[[238]]],"id":"feature_2"},{"properties":{"STATE_NAME":"South Australia"},"type":"MultiPolygon","arcs":[[[239,240],[241]],[[242]],[[243]],[[244]],[[245]],[[246]],[[247]],[[248]],[[249]],[[250]],[[251]],[[252]],[[253]],[[254]],[[255]],[[256]]],"id":"feature_3"},{"properties":{"STATE_NAME":"Western Australia"},"type":"MultiPolygon","arcs":[[[257],[258],[259],[260],[261],[262]],[[263]],[[264]],[[265]],[[266]],[[267]],[[268]],[[269]],[[270]],[[271]],[[272]],[[273]],[[274]],[[275]],[[276]],[[277]],[[278]],[[279]],[[280]],[[281]],[[282]],[[283]],[[284]],[[285]],[[286]],[[287]],[[288]],[[289]],[[290]],[[291]],[[292]],[[293]],[[294]],[[295]],[[296]],[[297]],[[298]],[[299]],[[300]],[[301]],[[302]],[[303]],[[304]],[[305]],[[306]],[[307]],[[308]],[[309]],[[310]],[[311]],[[312]],[[313]],[[314]],[[315]],[[316]],[[317]],[[318]],[[319]],[[320]],[[321]],[[322]],[[323]],[[324]],[[325]],[[326]],[[327]],[[328]],[[329]],[[330]],[[331]],[[332]],[[333]],[[334]],[[335]],[[336]],[[337]],[[338]],[[339]],[[340]],[[341]],[[342]],[[343]],[[344]],[[345]],[[346]],[[347]],[[348]],[[349]],[[350]],[[351]],[[352]],[[353]],[[354]],[[355]],[[356]],[[357]],[[358]],[[359]],[[360]],[[361]],[[362]],[[363]],[[364]],[[365]],[[366]],[[367]],[[368]],[[369]],[[370]],[[371]],[[372]],[[373]],[[374]],[[375]],[[376]],[[377]],[[378]],[[379]],[[380]],[[381]],[[382]],[[383]],[[384]],[[385]],[[386]],[[387]],[[388]],[[389]],[[390]],[[391]]],"id":"feature_4"},{"properties":{"STATE_NAME":"Tasmania"},"type":"MultiPolygon","arcs":[[[392]],[[393],[394],[395],[396],[397],[398],[399],[400],[401],[402],[403],[404],[405],[406],[407],[408]],[[409]],[[410]],[[411]],[[412],[413]],[[414]],[[415]],[[416]],[[417]],[[418]],[[419]],[[420]],[[421]],[[422]],[[423]],[[424]],[[425]],[[426]],[[427],[428]],[[429]],[[430]],[[431]],[[432]],[[433]],[[434]],[[435]],[[436]],[[437]],[[438],[439]]],"id":"feature_5"},{"properties":{"STATE_NAME":"Northern Territory"},"type":"MultiPolygon","arcs":[[[440,441],[442],[443],[444]],[[445]],[[446]],[[447]],[[448]],[[449]],[[450]],[[451]],[[452]],[[453]],[[454]],[[455]],[[456]],[[457]],[[458]],[[459]],[[460]],[[461]],[[462]],[[463]],[[464]],[[465]],[[466]],[[467]],[[468]],[[469]],[[470]],[[471]],[[472]],[[473]],[[474]],[[475]],[[476]],[[477]],[[478]],[[479]],[[480]],[[481]],[[482]],[[483]],[[484]],[[485]],[[486]],[[487]],[[488]],[[489]],[[490]],[[491]],[[492]],[[493]],[[494]],[[495]],[[496]],[[497]],[[498]],[[499]],[[500]],[[501]],[[502]],[[503]],[[504]],[[505]],[[506]],[[507]],[[508]],[[509]],[[510]],[[511]],[[512]],[[513]],[[514]],[[515]],[[516]],[[517]],[[518]]],"id":"feature_6"},{"properties":{"STATE_NAME":"Australian Capital Territory"},"type":"Polygon","arcs":[[519,520,521,522,523,524,525,526],[527]],"id":"feature_7"}],"type":"GeometryCollection"}},"bbox":[112.928673,-43.643092,159.10542,-9.229597],"transform":{"scale":[0.00046177208772087727,0.0003441383913839139],"translate":[112.928673,-43.643092]},"arcs":[[[99999,35100],[-79,-93],[18,152],[-85,91],[146,-150]],[[76372,19896],[-187,-14],[222,437],[-18,112],[32,40],[-146,116],[-37,-25]],[[76219,20859],[-188,216],[46,204],[-52,28],[6,493]],[[75955,21802],[-28,208],[22,65],[-142,-4],[-47,152],[-420,145],[-22,49],[-252,-120],[-93,15],[76,-58]],[[74979,22197],[-125,176],[-94,-50],[-100,51]],[[74477,22032],[-417,125],[-9,68],[-133,-208],[-19,-121]],[[73662,21872],[-463,207],[4,61]],[[72707,22331],[-7,-95],[-169,73]],[[72417,22062],[-147,41],[-4,-33],[-35,107],[-210,-90],[-111,115],[-352,-38],[-60,143],[20,14],[-110,26],[-198,-114]],[[70912,22425],[-300,360],[-390,-189],[-236,106],[-237,-11],[-20,39],[-235,-104],[-58,12]],[[69287,22242],[135,-197],[-8,-46],[-257,39]],[[69037,21850],[-146,47],[-31,-30]],[[68779,22031],[-154,-46]],[[68620,22118],[-53,-35],[-81,118],[-81,22]],[[68416,22296],[-210,203],[-35,-11],[7,131],[-135,267],[-115,87],[-68,-41],[-318,364],[-27,102],[-143,121],[-64,-41],[-43,25],[-43,159],[-241,58],[-233,268],[-283,1],[-47,103],[-79,43],[41,341],[-22,38],[-215,-36],[-48,88],[-119,-10]],[[65819,25008],[56,713]],[[65721,25719],[-53,56]],[[65715,25834],[-98,14],[-10,-32],[-11,85],[-231,142],[-156,-15],[-2,-49],[-250,159],[-81,-92],[-68,117],[28,35]],[[64670,26433],[-16,-99],[-78,11],[24,-68],[-128,2],[23,-222],[-57,15],[0,-126],[33,-30],[-176,-13],[61,-100],[-15,-49],[-250,60],[-54,173],[32,26],[-92,70],[26,89],[-67,8]],[[63969,26381],[-35,-58]],[[63721,26656],[-5,212],[99,172],[-348,89],[-33,363],[-116,-4],[-1,88],[-40,13],[-62,-76],[-80,4]],[[63016,27664],[21,68],[-53,-17],[20,-57],[-167,16],[-24,-55],[-25,69],[-99,-66],[-365,119],[-66,-14],[-203,-148],[42,-114]],[[61895,27392],[19,103],[-48,74],[-113,-36],[-80,63],[2,53],[-134,11],[-47,-42],[-180,225],[-123,-89],[-69,109],[-138,-65],[-115,118],[-26,-69],[-46,108],[-8,14598]],[[78025,42553],[110,122],[51,3]],[[78290,43010],[602,457],[62,-33],[141,293],[109,60]],[[79388,43791],[171,-171],[79,-6],[39,72],[478,-26],[426,153],[29,44]],[[81245,43523],[405,-33],[260,125],[263,-175],[70,17],[69,-125],[157,-29],[75,-301]],[[83052,42257],[129,-222],[118,-2]],[[83534,42344],[-9,148],[103,195],[279,132],[69,104]],[[84131,42667],[117,0]],[[84285,42818],[145,-63],[203,63]],[[84644,42984],[60,346],[72,68],[-80,127],[-62,-1],[-114,295],[-4,129]],[[84575,43993],[13,-65],[60,1],[116,167],[260,99],[58,-45]],[[85448,44385],[168,317]],[[85942,44673],[52,-121],[244,-154]],[[86517,44556],[496,-139],[143,240],[7,80],[397,-3],[250,266],[172,-34],[27,-203],[38,-57],[-71,-794],[140,-322],[44,17],[-92,-404],[28,-198],[-37,-93],[-37,102],[-25,-20],[29,-66],[-108,-9],[137,-13],[-273,-410],[-16,-353],[-243,-455],[70,-200],[-8,-218],[-113,-642],[29,-38],[-218,-887],[-79,-177],[21,-336],[-144,-289],[0,-157],[27,1],[-262,-551],[-94,-677],[55,-374],[134,-50],[28,-97],[-107,-267],[55,-155],[-189,-334],[-28,-392],[26,-22],[-133,-277],[50,-193],[-201,-282],[-24,-173],[33,-26],[-244,-567],[39,-25],[-316,-297],[-208,-493],[-8,-161],[134,-126],[-102,-229],[60,-117],[-76,-214],[51,-102],[-442,-243],[-304,-351],[21,-155],[-180,126],[-17,-68],[-98,-24],[-16,115],[-41,-86],[-161,73],[-51,-65],[71,-32],[2,-52],[-91,-91],[288,3],[-12,109],[59,-86],[209,48],[-32,-146],[-804,-358],[-32,-102],[-20,25],[35,83],[-41,-19],[-89,34],[112,-139],[40,29],[-315,-451],[-17,-40],[33,-7],[-78,-195],[19,-63],[-162,-279],[33,-30],[-164,-180],[74,224],[-37,12],[81,31],[10,43],[-116,43],[22,-114],[-168,-131],[59,-63],[-64,-38],[21,-38],[120,28],[1,-51],[-189,-467],[-156,-69],[-20,72],[59,4],[-34,42],[-76,-69],[-6,-71],[-78,11],[-33,-57],[-8,102],[-39,21],[63,126],[-121,-106],[-27,76],[87,57],[-1,63],[-98,-102],[20,-122],[65,-23],[34,-117],[-31,-43],[-100,5],[58,-45],[-138,-139],[311,243],[-51,-245],[92,-31],[23,254],[27,-8],[-38,-464],[-57,-14],[22,-223],[-210,148],[104,-159],[35,1],[-48,-77],[-219,85],[46,-39],[-71,-21],[-138,82],[-41,-21],[147,-119],[76,66],[-7,-88],[75,76],[-26,-73],[34,-13],[191,72],[-44,-294],[19,-46],[-36,-98],[-176,151],[-61,-156],[-20,57],[-33,-39],[-177,36],[70,-20],[-57,-40],[20,-44],[143,65],[-12,-71],[38,37],[23,-79],[53,108],[-5,-68],[155,34],[-2,-43],[-161,-74],[-6,-62],[-90,2],[-14,89],[-35,-68],[-60,3],[96,-44],[-59,-29],[196,42],[6,-33],[-396,-423],[-132,-246],[-95,-410],[64,-21],[18,-84],[-66,-36],[-36,-93],[26,135],[-118,16],[-77,-174],[141,25],[29,-151],[63,-22],[-105,-51],[19,-166],[-86,-322],[-139,-111],[-24,-100],[76,-382],[141,-76],[-35,-179],[-60,-58],[-43,63],[-22,-30],[5,234],[-59,34],[-173,-135],[66,-249],[-300,85],[-29,-27],[41,-29],[-52,-29],[118,-12],[-4,-183],[-123,-75],[10,-95],[-145,-126],[-7,-188],[38,-28],[-177,-204],[-9,-283],[-281,-551],[-216,59],[75,-165],[50,-34],[-21,-163],[22,-23],[-105,7],[-79,-168],[-4,-1092],[-177,-383],[39,-89],[-63,-322],[27,-41],[-354,-1047],[19,-87],[70,-14],[-32,-170],[36,-28],[-6,-106],[-157,-85],[176,-52],[74,-117],[37,0],[56,-281],[46,-71],[-186,37],[-48,-81],[71,-661]],[[87968,44957],[-91,-65],[-28,-76],[51,-4],[72,82],[-4,63]],[[87973,44871],[-24,-122],[30,21],[-6,101]],[[82920,29350],[15,-13],[7,16],[-22,-3]],[[82868,29395],[-28,76],[-48,-29],[15,245],[-151,-156],[-52,91],[28,-77],[36,-25],[115,49],[-53,-70],[52,-22],[-3,-73],[-92,49],[34,-88],[-22,-25],[61,12],[14,-58],[-105,-75],[39,-34],[63,90],[27,-21],[27,178],[43,-37]],[[83833,30711],[8,289],[-60,36],[-45,-140],[52,-109],[-56,62],[-36,-18],[8,-103],[71,-40],[-140,57],[-85,-116],[120,5],[8,-39],[-128,-68],[126,-110],[-33,86],[68,67],[-6,58],[34,-171],[94,254]],[[83955,31380],[167,-36],[21,-81],[76,155],[-289,20],[25,-58]],[[83964,31358],[24,-57],[45,-24],[-69,81]],[[83715,30323],[-48,1],[-20,-59],[68,58]],[[83234,29504],[-24,2],[2,85],[34,61],[-110,-37],[33,-147],[65,36]],[[83109,28882],[-54,-15],[-25,-18],[79,33]],[[78980,24188],[-182,124],[-94,8],[-125,157],[-20,-29],[-34,186],[-148,119]],[[77601,23675],[45,-386],[-35,-55],[67,-56],[-15,-107]],[[77919,22636],[302,-195],[114,339],[-37,648],[126,-35],[8,517]],[[78564,24112],[280,15],[34,-33]],[[85323,32039],[-36,-28],[-14,57],[50,-29]],[[60712,28077],[129,-230],[24,70],[119,-119],[11,76],[174,-66],[25,-54],[120,89],[2,-76],[180,-115],[-2,-34],[74,81],[268,-153],[26,26],[33,-180]],[[61895,27392],[202,73]],[[62097,27465],[-1,84],[-40,32],[74,-14],[30,101],[98,59],[553,-108],[98,75],[93,-37],[-18,58],[52,17],[-20,-68]],[[63016,27664],[104,-25],[15,-122]],[[63135,27517],[138,71],[113,-100],[44,7],[54,-84],[-17,-282],[348,-90],[-99,-171],[37,-112],[-32,-100]],[[63721,26656],[67,-24],[-53,-60],[76,15],[-43,-63],[55,-22],[-71,-22],[182,-157]],[[63934,26323],[-6,72],[41,-14]],[[63969,26381],[-33,-201]],[[63936,26180],[66,-7],[-22,-99],[89,-61],[-14,-168],[37,-31],[233,-72],[27,26],[-52,53],[-5,82],[175,11],[-44,131],[69,9],[-21,228],[132,0],[-30,63],[75,34],[19,54]],[[64670,26433],[40,-42],[-48,-85],[174,-108]],[[64836,26198],[17,-138],[104,78],[76,-49],[29,-88],[36,95],[61,-33],[-15,-58],[96,-15],[35,60],[48,-67],[42,60],[-11,-60],[87,-39],[31,49],[135,-177],[108,18]],[[65715,25834],[-47,-59]],[[65668,25775],[45,-10],[8,-46]],[[65721,25719],[154,2]],[[65875,25721],[-65,-468],[39,-246],[-30,1]],[[65819,25008],[157,-452]],[[65976,24556],[382,-42],[43,-217],[-62,-162],[117,-92],[9,-54],[139,56],[53,-70],[91,13],[26,-102],[369,-243],[79,19],[63,-132],[-20,-27],[250,-105],[124,-234],[338,-276],[66,-2],[150,-366],[-22,-32],[245,-192]],[[68416,22296],[-11,-73]],[[68405,22223],[215,-105]],[[68620,22118],[5,-133]],[[68625,21985],[32,85],[76,-60],[46,21]],[[68779,22031],[-11,-98],[91,16],[1,-82]],[[68860,21867],[177,-17]],[[69037,21850],[120,188]],[[69157,22038],[184,-70],[73,31],[-127,243]],[[69287,22242],[149,396]],[[69436,22638],[264,93],[455,-88],[67,-47],[234,118],[19,50],[109,-27],[28,48],[311,-334],[-11,-26]],[[70912,22425],[298,-192]],[[71210,22233],[92,93],[106,21],[54,-62],[56,36],[40,-157],[128,61],[307,-72],[28,-66],[154,87],[91,-104],[86,63],[65,-71]],[[72417,22062],[114,247]],[[72531,22309],[172,-39],[4,61]],[[72707,22331],[101,-100],[137,57],[158,-197],[100,49]],[[73203,22140],[46,-53],[-7,-56],[164,-28],[-1,-51],[220,-25],[37,-55]],[[73662,21872],[28,111],[209,-87]],[[73899,21896],[152,329],[45,-125],[305,-5],[76,-63]],[[74477,22032],[183,342]],[[74660,22374],[194,-1],[59,-126],[66,-50]],[[74979,22197],[70,57]],[[75049,22254],[-79,17],[3,41],[113,-42],[232,147],[442,-194],[25,-137],[164,-11],[-42,-117],[48,-156]],[[75955,21802],[76,-2]],[[76031,21800],[0,-725],[108,-179],[80,-37]],[[76219,20859],[19,-297]],[[76238,20562],[183,-91],[-14,-152],[-245,-397],[210,-26]],[[76372,19896],[3858,-2060]],[[80230,17836],[-436,-153],[-212,-370],[-417,-263],[-417,-35],[-36,-47],[-63,68],[-265,9],[-812,-57],[-46,-54],[-606,40],[-343,-27],[-732,-241],[-354,-178],[-676,-571],[-1284,-1403],[92,117],[-177,-31],[74,-63],[-136,-65],[-313,-41],[-38,58],[-153,-161],[-23,60],[-124,-48],[-43,43],[-181,-121],[-131,140],[-300,-58],[-16,-122],[-27,18],[-15,-42],[103,-191],[86,9],[43,-287],[265,153],[50,212],[88,-37],[23,-345],[-125,-292],[95,-43],[17,-102],[-113,-13],[-10,-188],[-175,14],[-53,109],[67,84],[-169,181],[-55,1],[40,15],[5,53],[-174,288],[-121,105],[-216,71],[-77,-97],[18,-91],[-184,-92],[-223,571],[-114,134],[-112,63],[-232,-98],[-267,357],[-242,57],[136,124],[-2,171],[-38,81],[215,-25],[72,128],[-129,401],[-308,58],[-48,-83],[-57,-18],[-95,74],[-68,-243],[-65,29],[62,-236],[-82,9],[68,-25],[42,-77],[-223,55],[-231,-245],[16,-33],[-314,-36],[-316,421],[-194,145],[431,-188],[156,57],[142,94],[214,443],[67,54],[3,211],[-44,135],[-176,131],[-104,351],[-158,53],[40,-67],[-25,-20],[-77,40],[-117,-47],[-33,-140],[-138,-58],[-182,-170],[-294,-128],[-19,-133],[-135,-1],[-101,52],[-79,-91],[8,-115],[111,-31],[20,92],[114,-118],[331,166],[132,-37],[60,-155],[-29,-107],[-43,37],[-116,-210],[85,13],[-113,-31],[-13,-47],[-402,30],[-208,-121],[-493,-424],[-148,-19],[-432,-630],[-336,-130],[-34,-122],[-108,-47],[-135,-175],[-93,-5],[-334,301],[-268,-36],[-329,335],[-484,133],[-637,532],[-199,52],[-214,159],[-241,-44],[-36,-92],[-214,14],[-573,365],[-302,37],[-135,-43],[-169,-131],[106,-232],[-49,-2],[-3,-37],[-116,48],[-65,-125],[-177,206],[-58,5],[-46,-105],[-84,28],[39,195],[-210,288],[-146,145],[-432,288],[-136,45]],[[73439,14608],[-100,-31],[-6,-17],[106,48]],[[73408,14412],[-159,-18],[76,26],[83,-8]],[[73220,14442],[-52,-32],[-12,22],[64,10]],[[73086,14339],[-162,-53],[-38,33],[200,20]],[[73068,14310],[-36,-25],[-50,7],[86,18]],[[72962,14195],[-163,-95],[-109,46],[-66,104],[98,60],[-3,-55],[73,26],[-91,-100],[167,81],[94,-67]],[[72705,14316],[-137,-32],[65,29],[72,3]],[[70543,15368],[-327,-191],[-188,50],[68,351],[119,-85],[217,13],[111,-138]],[[70242,14790],[-202,141],[-67,-6],[-41,-67],[-110,59],[-118,-25],[182,195],[196,3],[32,-103],[-17,-61],[134,-8],[-40,-77],[51,-51]],[[68808,15690],[-66,-60],[-19,33],[85,27]],[[62987,15199],[-33,-38],[-12,24],[45,14]],[[86517,44556],[-279,-158]],[[86238,44398],[-274,191],[-22,84]],[[85942,44673],[-76,-202],[-115,95],[18,127],[-56,39],[-97,-30]],[[85616,44702],[-41,-115],[-66,3],[6,-102],[-67,-103]],[[85448,44385],[-166,16],[-200,-251]],[[85082,44150],[-123,47],[-311,-268],[-73,64]],[[84575,43993],[-59,-45]],[[84516,43948],[118,-424],[142,-126],[-86,-142],[-46,-272]],[[84644,42984],[50,-41],[-61,-125]],[[84633,42818],[-348,0]],[[84285,42818],[-37,-151]],[[84248,42667],[-56,44],[-61,-44]],[[84131,42667],[-96,256],[-59,0]],[[83976,42923],[-348,-236],[-118,-300],[24,-43]],[[83534,42344],[-235,-311]],[[83299,42033],[-171,36],[1,90],[-77,98]],[[83052,42257],[-11,470],[-372,298],[-125,-23]],[[82544,43002],[-37,241],[-38,60],[-559,312],[-171,-48],[-89,-77],[-169,68],[-236,-35]],[[81245,43523],[-337,372],[-168,-108],[-130,70]],[[80610,43857],[-295,-88],[-84,-96],[-579,-20],[-14,-39],[-201,96],[-49,81]],[[79388,43791],[-184,-4]],[[79204,43787],[-250,-353],[-196,-41],[-468,-383]],[[78290,43010],[-104,-332]],[[78186,42678],[-161,-125]],[[78025,42553],[-17236,0]],[[60789,42553],[0,8725],[-6497,-1]],[[54296,78743],[378,-411],[321,-187],[468,-92],[193,41],[552,-339],[206,-8],[129,-73],[104,-250],[154,-89],[-37,-144],[31,-248],[179,-453],[148,-130],[313,-85],[-31,-83],[35,78],[53,-15],[368,-399],[379,-94],[55,-74],[196,-102],[24,-124],[120,-119],[460,16],[364,91],[452,233],[510,414],[127,212],[162,841],[-34,152],[25,123],[231,372],[38,195],[100,68],[164,255],[62,302],[82,88],[55,179],[-22,255],[318,969],[-129,459],[78,133],[55,620],[315,1334],[113,107],[67,459],[-158,426],[-140,1076],[164,711],[-5,409],[-284,518],[-2,172],[122,848],[372,878],[-243,794],[115,256],[225,161],[138,505],[129,-40],[31,64],[-82,9],[-27,57],[127,91],[17,69],[-32,28],[-128,-51],[-130,181],[-109,59],[-32,-111],[-204,-43],[-19,38],[473,1482],[87,187],[64,87],[63,-3],[-49,-86],[126,-475],[-64,-48],[71,40],[-34,234],[56,83],[78,-51],[40,60],[-151,182],[-1,90],[385,1677],[-8,418],[89,299],[-68,408],[15,95],[390,138],[4,-41],[164,258],[103,344],[130,-26],[71,85],[169,-178],[-130,-241],[-69,-34],[-37,-322],[-39,-70],[131,222],[32,81],[74,-3],[50,-194],[181,-104],[39,49],[151,-329],[16,-594],[102,-119],[61,-180],[-77,-151],[-13,-125],[70,-463],[-6,-609],[256,-254],[267,118],[150,-236],[124,56],[42,-42],[-127,-65],[-200,-484],[-31,-5],[0,-518],[220,-16],[186,-149],[14,-329],[317,-315],[42,12],[-175,-542],[-14,-293],[418,164],[-99,-311],[37,-169],[-26,-296],[27,-435],[38,-238],[102,-89],[38,-146],[-144,-966],[196,-619],[127,-136],[141,-926],[76,-192],[224,-241],[314,2],[362,413],[-1,228],[318,-137],[202,144],[119,269],[54,-2],[173,-273],[-32,-132],[12,-159],[124,36],[15,-29],[-70,-340],[161,-267],[176,63],[18,-140],[122,-60],[154,1],[87,-184],[13,-196],[147,-146],[356,-123],[89,17],[-21,-149],[135,-210],[151,12],[-256,-547],[64,-325],[165,71],[36,-145],[-57,-5],[-96,-111],[-97,-416],[45,0],[23,-238],[110,-84],[-22,-222],[105,-212],[16,-123],[-24,-431],[122,-118],[136,-364],[-54,-189],[-26,-2],[106,-391],[-89,-38],[-64,-142],[-17,-351],[126,-60],[246,-602],[193,-146],[241,-521],[-7,-69],[151,201],[45,-103],[107,123],[84,-94],[-124,-247],[-24,-221],[129,-212],[49,-324],[172,-414],[48,-29],[8,-319],[-96,-23],[-10,-110],[87,116],[175,-402],[-77,-129],[-4,-228],[-45,-83],[62,-162],[-61,-289],[22,-63],[-202,-417],[17,-362],[271,-346],[104,-319],[322,-153],[2,-233],[-42,-114],[41,45],[-141,-667],[36,-93],[356,-528],[486,-340],[193,17],[249,-345],[129,24],[34,-39],[138,270],[-12,97],[66,-268],[-16,-65],[188,-365],[682,4],[31,76],[-74,211],[421,-1019],[-62,-151],[31,-94],[152,-206],[145,-54],[92,84],[-28,101],[-50,41],[16,182],[154,-9],[90,-411],[114,-166],[161,-56],[74,97],[117,36],[69,-174],[311,-129],[10,27],[16,-136],[-80,-63],[264,-342],[245,71],[-53,186],[23,44],[133,-99],[107,77],[43,-380],[36,-11],[45,72],[-12,-127],[34,2],[20,142],[29,-132],[55,109],[-33,-200],[48,18],[-26,-119],[77,57],[65,-55],[30,133],[36,0],[18,-111],[53,-11],[-77,-26],[6,-38],[155,-151],[-21,-95],[-32,-1],[51,-20],[-2,-114],[90,-120],[48,15],[-40,-61],[100,-133],[-159,17],[-122,303],[-96,14],[56,-132],[-40,-45],[-172,127],[67,-171],[-115,-264],[121,-165],[20,28],[-45,-110],[57,-51],[-4,-82],[238,-217],[-116,-74],[112,-23],[9,-149],[91,79],[11,-85],[54,-41],[284,-32],[28,-74],[-103,-20],[6,-164],[155,6],[-45,44],[52,-4],[86,-89],[-13,-77],[22,108],[54,-12],[103,-223],[47,41],[-10,-247],[-12,73],[-116,-27],[-23,-32],[135,-7],[-89,-155],[87,-124],[-76,-126],[166,116],[39,-95],[54,12],[40,-347],[-89,-23],[119,-28],[15,-48],[-87,2],[-16,-234],[106,94],[23,-102],[99,48],[-48,-122],[165,-126],[-14,-44],[54,170],[35,9],[-99,-314],[23,-213],[46,14],[20,-100],[-118,-2],[-8,-82],[20,75],[54,-245],[34,-24],[-13,-253],[285,-1034],[128,-159],[5,-55],[157,21],[77,-68],[-50,-146],[19,-43],[69,163],[58,-6],[511,-810],[-290,925],[106,-3],[-64,29],[86,11],[-124,25],[7,136],[82,259],[189,172],[82,-75],[25,-191],[128,-122],[56,-293],[266,-108],[321,-398],[77,1],[29,-75],[-12,113],[114,-117],[-15,-32],[-50,44],[74,-173],[-25,78],[22,41],[27,-80],[-18,108],[100,20],[-140,318],[123,-41],[-110,62],[1,264],[49,102],[138,-31],[43,-52],[-12,-54],[-49,47],[54,-93],[-68,-26],[71,-7],[5,-95],[-41,-52],[85,-36],[-35,247],[36,66],[107,-283],[80,-7],[-64,-210],[-98,132],[-9,-63],[-65,59],[96,-204],[-20,-84],[82,58],[16,-28],[-12,-107],[28,-68],[-82,50],[28,-87],[89,1],[23,27],[-45,7],[53,209],[25,-1],[-43,84],[64,-16],[-13,-319],[75,-118],[49,-14],[-185,-1291],[170,-312],[-84,-214],[-47,19],[92,-301],[133,-215],[-177,-85],[191,-123],[-3,-38],[-92,34],[69,-63],[-19,-132],[38,128],[129,95],[54,-27],[0,-132],[-74,-70],[93,51],[16,145],[104,-46],[-95,240],[168,119],[34,-118],[280,-69],[-19,-54],[90,136],[-20,-365],[194,-435],[-53,0],[-12,-111],[-50,140],[-87,-146],[-211,333],[42,-248],[63,-133],[270,-129],[44,17],[-29,-133],[42,73],[92,-181],[130,-145],[24,-260],[13,147],[88,-141],[20,22],[-113,149],[-2,69],[224,-108],[-93,-46],[101,-129],[-5,-69],[33,115],[42,-39],[-14,149],[236,-198],[-39,126],[46,-20],[-18,52],[-158,118],[13,86],[260,-125],[-56,-51],[24,-138],[63,161],[-14,84],[57,-35],[48,-298],[-33,-34],[226,-122],[-58,-137],[73,125],[8,76],[370,-1054],[-29,-38],[226,-295],[429,-307],[70,1],[6,-188],[6,98],[182,-154],[38,-449],[103,-346],[28,46],[66,-132],[122,-95],[-160,-88],[120,-3],[106,-177],[127,-74],[198,76],[45,-96],[173,-49],[-11,-247],[32,-153],[-60,35],[-84,-163],[166,125],[48,-5],[-94,-191],[93,13],[-89,-99],[-11,73],[-75,-153],[-29,9],[108,-353],[-72,-25],[205,-229],[-2,-92],[-70,-3],[-7,-58],[109,34],[73,-76],[-9,-105],[-50,-45],[62,43],[21,-33],[-66,-86],[-9,-80],[74,2],[-71,-56],[28,-107],[130,487],[-54,42],[56,-11],[29,-223],[74,-131],[157,2],[-251,-848],[-33,-257],[35,-192],[92,0],[-61,-402],[129,-827],[-39,-68],[161,-744],[-91,-51],[-188,369],[26,80],[-34,71],[119,134],[0,129],[-130,-227],[-19,44],[-35,-271],[-44,-6],[77,-2],[108,-213],[-25,-5],[98,-33],[-168,-102],[-50,-113],[-46,73],[33,-211],[172,-4],[-19,-185],[-66,-3],[-4,101],[-47,-7],[34,-243],[197,-184],[-41,-112],[-69,-67],[-130,-3],[8,-59],[124,50],[69,63],[75,172],[30,-15],[-17,-76],[-39,-11],[64,-171],[-13,-57],[93,-17],[20,48],[167,-338],[-45,-39],[56,-306],[-65,25],[12,-55],[125,-3],[58,8],[-34,175],[105,20],[-60,-46],[16,-89],[56,134],[-19,379],[-31,44],[87,295],[234,-116],[-190,-685],[-11,-169],[-89,-30],[-41,112],[-18,-23],[58,-94],[59,15],[-28,-125],[-92,-17],[60,-17],[-37,-82],[-61,52],[119,-407],[28,20],[-6,-200],[41,-235],[138,-225],[82,-10],[-38,-38],[-125,60],[-260,-270],[-169,47],[-102,-92],[-116,52],[-150,-320],[-379,56],[-117,83]],[[85817,53641],[-35,-20],[14,-43],[21,63]],[[82520,58260],[13,-126],[139,-65],[-123,106],[-29,85]],[[87602,45866],[-29,29],[-15,1],[44,-30]],[[87601,45799],[-82,-38],[14,-71],[68,109]],[[86803,46891],[-30,-26],[22,-17],[8,43]],[[86766,46938],[45,-3],[-41,6],[82,59],[-67,-18],[-19,-44]],[[86490,46626],[84,-13],[2,130],[-30,-59],[26,-68],[-82,10]],[[86607,46801],[42,26],[72,-48],[-2,111],[1,-105],[-76,50],[-37,-34]],[[87792,48279],[-106,-509],[38,-379],[-20,-86],[-135,472],[-9,407],[232,95]],[[87701,45700],[-43,238],[84,223],[-41,-461]],[[87592,46565],[-30,-41],[-34,29],[31,122],[33,-110]],[[87589,46914],[-65,-47],[-18,47],[83,0]],[[86669,52506],[220,664],[0,292],[-128,70],[363,398],[135,256],[8,243],[-178,277],[-54,5],[315,342],[13,-570],[119,-205],[55,1],[21,-124],[-547,-1609],[-66,-675],[-83,-1],[-52,68],[-141,568]],[[87513,46355],[-27,-12],[-17,42],[44,-30]],[[87511,46715],[-8,-24],[-36,4],[44,20]],[[86764,53200],[-75,93],[-35,87],[110,-180]],[[83300,57473],[-61,-30],[-82,223],[9,128],[134,-321]],[[82435,59458],[-121,-49],[-16,57],[95,86],[42,-94]],[[82261,59753],[-54,-10],[5,84],[49,-74]],[[82169,58515],[-16,-32],[-31,15],[47,17]],[[82154,58451],[-39,-14],[-20,33],[59,-19]],[[81793,63026],[-17,-40],[-29,5],[46,35]],[[81495,62034],[-169,-158],[-9,83],[46,51],[-88,19],[35,103],[54,-25],[-65,140],[19,43],[177,-256]],[[81288,62170],[-94,-149],[-14,57],[55,140],[53,-48]],[[81069,63703],[-84,-140],[-55,65],[139,75]],[[81040,63858],[-23,-21],[-31,46],[54,-25]],[[80981,62206],[-43,-41],[-13,18],[56,23]],[[80935,63864],[-128,-30],[9,164],[119,-134]],[[80893,61869],[-51,-35],[-18,-3],[69,38]],[[80879,64295],[-41,-34],[-26,33],[67,1]],[[80683,62955],[-37,-76],[-37,95],[74,-19]],[[80368,62567],[-206,-176],[-26,57],[167,149],[65,-30]],[[80129,62502],[-45,-261],[-28,-33],[-58,25],[21,57],[-38,108],[43,295],[43,46],[62,-237]],[[80022,62909],[-41,-56],[-38,25],[79,31]],[[79888,64036],[-82,-20],[17,10],[65,10]],[[79619,64855],[-19,-25],[-47,64],[66,-39]],[[79471,66178],[-64,-48],[-40,47],[60,12],[-5,54],[49,-65]],[[79377,62965],[-36,-51],[-16,13],[52,38]],[[79199,63386],[-30,-20],[-38,43],[68,-23]],[[79113,66044],[-74,-89],[-3,112],[77,-23]],[[79030,66030],[-37,-13],[-42,58],[79,-45]],[[79008,66456],[-32,-18],[-16,29],[48,-11]],[[78767,66387],[-53,10],[-6,43],[59,-53]],[[78743,66349],[-47,-1],[-41,12],[88,-11]],[[78535,66751],[-10,-51],[-36,49],[46,2]],[[78476,66717],[-61,-33],[-5,24],[40,70],[26,-61]],[[78384,67122],[-20,-26],[-41,16],[61,10]],[[78342,67304],[-49,-9],[-33,-121],[-65,67],[62,2],[32,191],[53,-130]],[[78339,67973],[-57,-123],[-15,1],[72,122]],[[78308,66784],[-49,55],[-24,66],[73,-121]],[[78255,67386],[-66,-21],[-21,55],[87,-34]],[[78249,67850],[-214,-103],[-28,75],[54,99],[-81,-111],[-19,61],[-35,-14],[107,134],[-52,15],[48,152],[-9,85],[86,-131],[-9,-137],[74,45],[-24,-102],[102,-68]],[[78211,68249],[-12,-78],[-39,64],[51,14]],[[78077,67680],[-81,-37],[3,93],[78,-56]],[[78046,68506],[-67,-99],[30,-160],[-42,-63],[-4,133],[-60,-97],[29,124],[-60,-133],[41,284],[133,11]],[[77931,66225],[-38,-7],[-13,74],[51,-67]],[[77845,67583],[-51,10],[-16,134],[67,-144]],[[77791,67943],[-23,-56],[-28,-13],[51,69]],[[76986,68697],[-9,-139],[-65,15],[2,205],[72,-81]],[[73532,71278],[-81,-198],[-146,153],[227,45]],[[73121,72318],[-272,-21],[45,148],[-36,100],[102,-88],[48,-122],[113,-17]],[[72847,72564],[-24,-49],[-38,87],[62,-38]],[[72759,72560],[-18,-34],[-27,71],[45,-37]],[[72689,72760],[30,-56],[-41,-130],[11,186]],[[72132,73694],[-31,254],[60,-123],[119,-14],[-65,-220],[121,-130],[-16,-110],[74,-53],[-74,-198],[-216,22],[-71,326],[-261,349],[121,35],[239,-138]],[[72006,73361],[29,-95],[-103,207],[74,-112]],[[72034,74030],[-34,-42],[-52,16],[18,68],[68,-42]],[[70486,84190],[-63,-30],[6,97],[57,-67]],[[69430,84676],[-23,-25],[-61,35],[84,-10]],[[67901,85571],[-94,10],[-16,46],[87,49],[23,-105]],[[67891,85480],[-20,-36],[-52,51],[72,-15]],[[67868,85707],[-50,-11],[-77,-96],[47,151],[80,-44]],[[67425,98014],[-12,-32],[-41,2],[53,30]],[[66820,98989],[-53,-58],[-1,48],[54,10]],[[66208,90418],[-58,16],[-44,49],[102,-65]],[[65010,98185],[-78,-38],[-32,39],[110,-1]],[[64835,97647],[-22,-41],[-68,82],[90,-41]],[[64357,99606],[333,-31],[-202,-153],[-240,72],[16,59],[93,53]],[[64484,94991],[-84,49],[-32,62],[83,-15],[33,-96]],[[64399,95933],[-33,-28],[-41,33],[74,-5]],[[64362,98445],[-3,-24],[-56,0],[59,24]],[[64304,95601],[-23,-7],[-59,90],[82,-83]],[[64151,99447],[-44,-48],[-6,74],[50,-26]],[[63701,97260],[-142,-255],[-131,61],[-74,144],[78,176],[100,38],[169,-164]],[[63663,95984],[-127,-90],[-69,102],[46,80],[106,26],[44,-118]],[[63651,96217],[-45,-33],[-35,42],[61,65],[19,-74]],[[63648,99016],[-77,-6],[-56,47],[133,-41]],[[63616,95663],[-32,-35],[-18,51],[50,-16]],[[63595,99903],[-24,-64],[-84,-18],[-245,77],[196,101],[157,-96]],[[63557,95707],[-153,-58],[-63,-129],[-148,250],[204,262],[160,-325]],[[63460,96093],[-48,-44],[-11,22],[59,22]],[[63454,96209],[-99,-100],[-3,45],[102,55]],[[63392,97909],[-50,-70],[-29,62],[79,8]],[[63373,97453],[-63,-218],[-169,198],[62,128],[147,27],[23,-135]],[[63344,96059],[-22,-59],[-49,31],[71,28]],[[63326,96152],[-28,-48],[-27,13],[55,35]],[[58381,78428],[-68,-70],[-17,40],[85,30]],[[58050,78938],[-54,-37],[-18,46],[54,69],[18,-78]],[[58001,78784],[-185,0],[-66,-69],[-64,232],[-43,40],[31,-57],[-186,-134],[85,-55],[-16,-91],[-50,60],[-67,-39],[44,-40],[-16,-130],[-58,-8],[27,-104],[-29,-24],[-135,95],[-4,-129],[-215,-137],[-97,7],[-65,68],[-10,133],[-63,-17],[-33,99],[332,497],[349,48],[179,161],[221,-171],[57,-3],[77,-232]],[[57844,77203],[-93,-169],[-3,60],[96,109]],[[57483,77141],[-98,-28],[15,-99],[-87,165],[146,167],[62,-56],[9,189],[134,-159],[-4,-103],[51,-69],[-138,-53],[10,-33],[-100,79]],[[57494,78351],[-79,-70],[-6,26],[85,44]],[[57035,77250],[-111,64],[-16,96],[127,-160]],[[56868,78345],[-57,-196],[-46,-15],[10,181],[93,30]],[[56789,77937],[-125,-61],[-8,47],[90,84],[43,-70]],[[60712,28077],[4,-11842]],[[60716,16235],[-657,-16],[-451,365],[-125,49],[-471,877],[-143,113],[40,64],[-22,74],[-154,152],[-123,-21],[-548,882],[6,77],[99,-6],[16,59],[-120,338],[-153,185],[255,182],[120,161],[44,250],[-27,308],[-147,548],[-563,1207],[-316,440],[-358,400],[-711,573],[-261,106],[-285,-67],[-236,-288],[-792,-44],[-131,95],[68,203],[361,254],[102,219],[216,124],[114,771],[52,153],[-90,509],[4,215],[40,53],[8,-229],[99,95],[44,-42],[-54,210],[-240,246],[33,43],[-42,93],[-177,262],[-171,158],[-92,482],[-67,113],[-100,19],[47,59],[-4,70],[-138,239],[-54,16],[-140,-284],[-24,-75],[44,-81],[-32,-186],[-194,-230],[-65,-230],[-25,-263],[69,-53],[-326,-1106],[15,-128],[-85,-38],[73,-177],[-175,-154],[-87,-2],[-376,201],[-89,3],[-187,-187],[-214,-6],[-138,-212],[-374,42],[-124,-172],[-207,0],[-57,107],[53,48],[-2,113],[207,177],[43,136],[-67,155],[178,315],[3,80],[172,-78],[397,75],[213,-173],[160,126],[23,298],[108,551],[-56,520],[-44,36],[-78,-133],[-26,37],[132,196],[52,482],[-109,264],[157,18],[98,249],[-33,85],[-54,29],[224,240],[-11,78],[-55,53],[604,814],[88,27],[-57,-111],[52,2],[39,210],[63,-63],[28,45],[-82,32],[-71,330],[-79,110],[24,213],[-139,106],[-13,59],[92,202],[318,189],[51,-146],[66,194],[-65,27],[46,56],[-59,148],[-144,86],[-111,664],[94,58],[-231,180],[49,18],[16,74],[-141,163],[58,40],[21,-27],[-7,84],[-116,70],[-69,393],[-1,-851],[68,-16],[61,-102],[-24,-421],[-20,-63],[-86,-18],[80,-228],[-314,130],[-120,-194],[24,-41],[-314,-275],[-39,-289],[-105,-198],[-24,16],[-30,-425],[-100,-94],[-219,-551],[-480,-185],[-700,-448],[-164,-60],[-44,-68],[5,-60],[-303,-198],[-155,-168],[-84,-326],[-100,-114],[-97,-219],[-99,-112],[-163,-71],[-19,-68],[57,-71],[-83,-65],[54,11],[11,-121],[-64,-219],[-20,138],[-57,47],[-89,-58],[14,-50],[-103,33],[-91,-69],[-65,-186],[67,-50],[9,-114],[-100,97],[-64,-52],[-17,-92],[0,-146],[81,-105],[-97,-4],[-131,-164],[233,11],[136,141],[10,-78],[43,-2],[31,172],[25,-31],[-28,-266],[-73,-61],[96,-383],[-108,-75],[-55,168],[-133,83],[-25,-22],[-5,119],[-134,74],[-172,-12],[-58,-232],[-145,2],[11,110],[-324,472],[-268,185],[-55,-18],[48,60],[-12,107],[-193,224],[-171,-9],[-65,-107],[-75,11],[211,461],[32,-201],[287,-68],[-81,4],[-41,-92],[227,-236],[-79,-25],[327,85],[-127,77],[32,-88],[-89,39],[30,192],[-88,87],[19,-234],[-38,-15],[56,-25],[-71,19],[-93,951],[-228,342],[83,88],[-17,291],[-168,290],[-26,122],[-307,357],[-455,374],[72,231],[-40,320],[-93,313],[-311,277],[132,10],[-4,100],[-33,61],[-232,104],[-79,-65],[145,-98],[33,36],[-21,-90],[71,-27],[-46,-4],[-25,-61],[-270,244],[-120,48],[-135,-95],[-43,5],[-25,59],[-13,-101],[-49,-27],[-148,136],[-65,318],[-83,24],[-52,-60],[-64,109],[120,13],[18,145],[-28,62],[-278,100],[168,199],[-42,163],[-127,177],[247,13],[66,-21],[22,-16],[-135,20],[103,-66],[-8,-141],[55,15],[148,282],[-52,346],[-113,182],[-110,123],[-217,38],[-13,44],[11,-45],[52,-42],[-106,31],[-91,-71],[-8,-61],[-149,31],[-63,-135],[-97,-2],[39,415],[66,-1],[-21,-69],[69,-15],[60,49],[9,67],[-281,449],[-112,-87],[-28,168],[-168,10],[29,137],[-108,31],[60,28],[-8,91],[-115,52],[-47,-4],[-84,-239],[-72,95],[-50,-40],[-16,118],[-36,29],[-175,-172],[115,-56],[-368,-48],[-48,-46],[-192,118],[-84,-112],[27,98],[-108,139],[-177,127],[-58,-67],[4,71],[-39,49],[-470,337],[-466,42],[-115,-33],[-69,-71],[58,-173],[-125,91],[-312,-101],[-153,18],[-277,319],[-681,573],[-1112,663],[-208,83],[-265,-215],[-477,-197],[-1416,84],[-2493,-321],[2,16529],[25981,7],[8,-23321],[-85,120]],[[46390,30509],[-143,335],[-19,11],[-20,-184],[182,-162]],[[44445,33306],[86,-42],[-9,-30],[-4,28],[-73,44]],[[55477,25699],[-60,-19],[-9,142],[69,-123]],[[54586,22670],[-204,-182],[-514,155],[-135,-7],[-280,-174],[19,-190],[-39,-90],[-307,-190],[-194,222],[-350,71],[-170,-174],[-290,48],[-177,-76],[-133,78],[-275,-83],[-47,-55],[7,79],[-93,178],[-182,72],[-105,216],[118,371],[791,217],[253,15],[528,261],[384,-2],[61,-45],[222,99],[28,-13],[-17,-91],[-123,-63],[0,-40],[155,-18],[5,-45],[-140,-159],[-2,-48],[256,-42],[182,47],[50,-98],[-124,-126],[18,-122],[131,60],[-81,110],[162,-31],[104,219],[87,10],[228,-77],[193,-287]],[[52955,26576],[-88,-84],[-6,109],[50,75],[44,-100]],[[51034,24631],[-90,2],[-25,50],[115,-52]],[[50740,26092],[-31,-55],[-32,71],[63,-16]],[[50624,26553],[-66,-128],[-9,21],[75,107]],[[50406,24961],[-90,-6],[-14,142],[-160,177],[53,37],[211,-350]],[[49861,25918],[-52,-27],[-38,109],[21,36],[38,-13],[31,-105]],[[47392,29200],[-13,-47],[-67,44],[80,3]],[[46818,28830],[-112,-70],[-107,-77],[55,238],[120,37],[44,-128]],[[44925,33157],[-159,-219],[-110,-1],[-20,85],[289,135]],[[44884,32522],[-33,-35],[-31,17],[64,18]],[[44139,32350],[-59,-3],[-34,31],[93,-28]],[[44113,32212],[-16,-29],[-35,7],[51,22]],[[1008,50125],[-85,268],[-40,2],[85,276],[23,-21],[-49,567],[252,-737],[17,-250],[41,-20],[-65,-329],[21,-22],[36,46],[6,174],[48,136],[-74,151],[94,89],[86,-654],[-41,-202],[87,-116],[-10,297],[44,65],[10,-84],[26,160],[-11,-313],[36,-141],[47,68],[0,-227],[37,46],[52,-10],[-39,175],[262,-27],[162,298],[-4,503],[-180,241],[-238,101],[-145,339],[-88,11],[-46,438],[-90,78],[-10,196],[-112,124],[-1,98],[-100,148],[38,288],[171,356],[31,-304],[107,-84],[14,46],[55,-271],[183,-218],[66,-13],[0,-216],[87,-31],[-59,-392],[-75,-91],[54,-435],[-47,-15],[188,-22],[51,83],[152,344],[-40,303],[26,32],[63,-44],[18,-65],[-46,-153],[38,-253],[79,-60],[-28,-177],[83,-403],[225,-360],[349,447],[-107,385],[76,178],[39,-137],[29,61],[-130,469],[109,-26],[44,30],[-40,133],[43,142],[-133,101],[-436,681],[-405,1293],[-227,204],[-100,234],[30,261],[26,13],[-58,95],[-28,-27],[30,125],[88,33],[-193,-23],[33,178],[-21,149],[-468,761],[-2,526],[-35,230],[41,2],[75,121],[-46,403],[79,85],[25,335],[309,778],[304,298],[54,146],[35,529],[-74,507],[113,112],[30,369],[-154,580],[-184,114],[7,349],[-42,53],[361,793],[244,966],[196,355],[306,190],[56,-84],[-92,-151],[-23,-265],[-125,-570],[10,-108],[104,-204],[-37,-203],[73,87],[63,-12],[-1,-139],[-122,-182],[47,-355],[301,303],[75,-20],[50,-220],[94,150],[44,-13],[-23,228],[65,-14],[-59,37],[11,68],[109,-9],[-93,91],[54,106],[59,-100],[-67,156],[44,46],[48,-14],[-30,55],[51,-17],[-65,48],[2,78],[103,-36],[-97,177],[95,-10],[18,-60],[20,341],[75,0],[107,228],[10,-55],[34,206],[93,74],[-48,3],[12,188],[78,12],[32,78],[467,364],[273,-11],[149,176],[49,-82],[134,115],[36,-22],[-51,45],[120,103],[5,-33],[116,-17],[303,188],[42,61],[-23,-103],[46,85],[26,-34],[-11,60],[54,-8],[-19,38],[81,89],[-48,-28],[7,48],[106,59],[15,-57],[-31,128],[90,44],[10,-37],[-18,90],[83,73],[-20,26],[359,258],[-10,-92],[64,115],[49,-7],[126,403],[62,99],[387,227],[-7,-69],[25,-40],[-4,107],[59,12],[34,-46],[91,131],[3,193],[80,52],[-77,-14],[29,159],[119,-99],[-8,-36],[310,168],[130,-59],[-36,53],[194,164],[-13,44],[172,-3],[-68,132],[11,47],[125,51],[24,-22],[-99,-133],[134,-39],[-47,56],[92,-3],[9,50],[-101,4],[266,207],[-40,35],[140,268],[122,8],[-129,-233],[-18,-216],[62,-81],[215,-48],[-17,-45],[153,240],[105,-28],[120,127],[24,-89],[49,1],[119,180],[-3,-137],[-54,-51],[95,-28],[-62,-99],[50,59],[40,-80],[21,37],[269,-117],[5,-126],[28,129],[41,-145],[30,156],[99,-42],[3,42],[283,107],[47,-28],[-11,69],[89,46],[-31,-68],[86,-82],[52,142],[52,-81],[228,59],[-76,31],[201,237],[66,-9],[-58,39],[23,57],[66,-39],[17,64],[47,-68],[62,65],[-61,98],[-3,90],[53,-33],[469,450],[39,-95],[-66,0],[-9,-40],[87,18],[-20,-79],[42,95],[193,39],[-34,26],[124,55],[38,-128],[11,65],[307,61],[-9,-53],[89,109],[-46,17],[77,32],[-21,-151],[52,25],[5,-58],[65,76],[46,-8],[-84,76],[15,63],[166,-133],[-19,-31],[340,194],[49,-30],[-34,80],[27,82],[88,-89],[-49,104],[79,168],[135,118],[76,265],[161,60],[68,162],[149,-162],[83,-25],[-75,47],[-2,148],[102,10],[547,-152],[213,-217],[186,98],[99,150],[8,-123],[104,156],[-49,21],[92,19],[-18,41],[221,-40],[578,166],[136,-5],[1702,851],[286,240],[647,874],[213,418],[116,362],[-25,75],[54,-21],[48,29],[-53,-19],[58,227],[103,142],[12,155],[-78,73],[-3,103],[266,5],[112,138],[-4,140],[-133,97],[189,244],[-60,22],[56,96],[123,-60],[69,22],[490,456],[183,300],[218,92],[119,163],[17,367],[-276,109],[-94,-164],[-69,101],[64,84],[18,208],[-88,792],[-59,118],[61,863],[235,344],[80,-40],[-66,56],[64,29],[-139,-6],[-1,34],[245,356],[224,178],[-84,-137],[108,6],[-1,252],[85,-114],[-25,-60],[225,-31],[-169,373],[81,2],[17,215],[126,-112],[210,67],[50,92],[-32,-76],[107,33],[-23,39],[139,-130],[-53,102],[37,36],[-136,26],[19,115],[-88,-12],[-4,49],[64,270],[195,207],[49,-32],[-46,55],[90,66],[-6,156],[51,132],[138,5],[108,83],[-8,-119],[-44,-17],[61,-99],[73,-1],[-68,-97],[-64,64],[-71,-39],[32,-60],[-57,-88],[80,-36],[-117,-150],[92,-63],[-2,-114],[93,57],[-5,-146],[31,-56],[61,-7],[11,83],[22,-129],[70,-6],[27,66],[-79,-277],[118,-64],[-17,-346],[186,-131],[61,-122],[284,-781],[-3,-103],[263,-297],[143,-482],[5,463],[-39,56],[177,644],[-121,241],[-15,197],[37,66],[102,31],[70,-172],[53,48],[79,-75],[104,-244],[216,-202],[51,29],[-169,273],[-82,331],[353,441],[-17,99],[-147,-173],[-190,-99],[-183,462],[-65,3],[-138,210],[-249,60],[215,223],[-28,43],[66,-19],[-10,57],[-193,29],[35,-81],[-53,17],[-13,-91],[-94,231],[-86,20],[0,36],[148,-46],[-77,109],[26,21],[368,-175],[-130,92],[148,68],[-316,160],[-6,38],[172,-60],[-158,138],[338,-164],[69,63],[-147,169],[190,-46],[-195,238],[-61,-93],[-105,115],[106,55],[-50,55],[88,-48],[-115,132],[81,0],[-96,112],[258,42],[-23,35],[77,-53],[1,-60],[27,66],[-23,39],[55,-8],[-55,82],[166,-149],[-17,42],[92,-158],[-93,10],[55,-136],[-117,29],[-5,-30],[121,-153],[150,-34],[28,-126],[-59,-2],[-32,51],[38,-235],[37,-35],[37,109],[25,-38],[-34,201],[54,-27],[-51,58],[68,-27],[-72,140],[225,-193],[-117,211],[59,52],[85,-34],[-182,175],[-13,61],[201,-128],[-7,-30],[390,-130],[48,-277],[266,-29],[-36,-118],[24,-38],[154,68],[43,-285],[82,137],[44,-7],[-142,84],[-30,158],[-113,-11],[110,213],[134,-125],[0,-65],[641,61],[206,-129],[166,40],[11,86],[55,-6],[12,64],[-77,-49],[-36,-81],[-187,-1],[-262,208],[-512,-24],[-72,-19],[-39,73],[-25,-12],[29,255],[-62,99],[42,137],[78,-27],[21,330],[71,-39],[6,-45],[-47,-24],[127,-218],[-19,-83],[114,251],[83,-23],[104,85],[-118,-52],[6,258],[-34,78],[25,8],[-5,71],[98,-73],[18,29],[-58,70],[-37,-9],[49,178],[-34,23],[136,103],[29,-76],[49,218],[81,-24],[-81,209],[-55,-56],[56,83],[-154,-144],[-2,34],[-291,-637],[30,185],[-54,41],[-23,-62],[5,140],[44,11],[-87,209],[38,-7],[-33,50],[-39,-18],[-56,-196],[-51,458],[-55,137],[95,-28],[4,129],[64,-95],[-22,136],[90,10],[-46,80],[-107,-67],[55,158],[-27,33],[104,36],[45,115],[52,-81],[-39,114],[-100,-59],[156,109],[239,-165],[10,258],[27,35],[-8,-111],[72,-42],[2,223],[149,113],[-180,20],[0,87],[63,-24],[35,36],[-74,151],[4,40],[58,-68],[8,73],[141,-141],[-74,-120],[37,-33],[65,175],[84,-51],[54,37],[-4,-32],[39,68],[-5,-76],[-35,-4],[6,-113],[129,-20],[139,-177],[16,33],[53,-113],[-109,-118],[94,35],[7,-97],[41,113],[-3,-212],[99,243],[56,-7],[720,-676],[-760,743],[45,248],[159,71],[-14,71],[-150,-92],[66,239],[-40,-89],[-50,112],[37,-129],[-29,-65],[-109,115],[-240,-238],[-48,49],[-47,110],[111,211],[117,15],[53,-52],[118,178],[-9,48],[-92,28],[-45,-126],[-49,98],[2,-128],[-78,61],[-59,-170],[-70,-47],[35,92],[-50,-39],[-10,142],[70,62],[-127,-28],[17,60],[-25,13],[165,149],[162,-77],[56,116],[41,-58],[-10,351],[-29,27],[135,22],[40,-36],[-73,-117],[53,-36],[-24,-70],[72,92],[43,-30],[42,-265],[40,-49],[135,140],[98,-30],[22,47],[3,-134],[114,-56],[317,23],[-268,135],[96,69],[-75,65],[17,28],[230,157],[-131,-67],[-26,67],[1,-77],[-51,-21],[-44,119],[-173,-22],[41,109],[-109,-49],[7,101],[-95,-76],[37,147],[53,-21],[2,77],[83,-110],[48,146],[38,18],[-83,18],[-20,65],[-111,-43],[19,104],[-45,-101],[-29,5],[-56,110],[46,105],[-118,46],[-20,80],[39,45],[64,-44],[-20,108],[46,35],[22,-69],[3,154],[107,-71],[37,115],[63,11],[-43,77],[-130,-102],[-52,20],[284,278],[26,-26],[-12,126],[48,46],[10,-168],[-31,-60],[99,33],[22,79],[42,-279],[80,308],[30,10],[23,-82],[-6,119],[69,56],[87,-43],[-66,-91],[10,-51],[140,3],[-58,44],[89,107],[-55,15],[75,348],[-74,46],[-10,319],[-22,-4],[69,54],[-21,17],[115,-65],[-1,47],[118,-176],[32,77],[26,-10],[-41,-136],[-30,7],[63,-48],[-136,18],[55,-476],[-91,-432],[135,469],[141,20],[69,103],[22,-21],[-30,-80],[108,65],[15,-53],[-91,-66],[71,-111],[-42,-143],[139,-110],[33,-112],[58,54],[-38,175],[-36,18],[39,114],[282,22],[-68,344],[-74,-24],[-19,76],[242,123],[-75,281],[172,67],[59,159],[-41,55],[61,33],[-141,205],[-87,7],[-69,-63],[-85,78],[-44,202],[24,26],[57,-220],[36,142],[17,-63],[46,34],[-38,131],[139,-173],[-35,155],[45,32],[-208,148],[117,-5],[64,93],[-20,-74],[48,5],[-48,-77],[42,58],[60,-55],[4,75],[52,11],[-37,-130],[38,-30],[-106,-169],[167,175],[62,1],[12,-59],[-137,-28],[-30,-50],[175,-34],[-163,-119],[91,4],[-29,-73],[78,43],[5,-129],[-81,-28],[64,-17],[-49,-89],[40,-53],[84,28],[-59,-177],[54,38],[27,-46],[232,143],[-137,149],[37,120],[66,-2],[-23,140],[130,-5],[5,107],[62,8],[28,85],[35,-65],[179,206],[62,-59],[-123,-158],[-39,1],[-16,-113],[-74,-105],[12,-58],[52,-17],[75,99],[26,-18],[-56,-54],[-1,-87],[123,-61],[30,33],[12,-258],[57,-21],[128,352],[-35,109],[89,-77],[8,36],[9,-126],[64,202],[86,44],[-19,112],[-67,-52],[-59,88],[22,75],[49,-68],[49,14],[-1,57],[144,-29],[45,32],[95,-80],[51,39],[-143,167],[-74,-8],[-134,403],[163,65],[16,-114],[35,-24],[11,56],[55,-4],[-46,71],[64,75],[88,-79],[49,24],[-65,77],[106,-1],[159,-263],[22,77],[-6,-126],[81,26],[-45,-197],[91,68],[-19,-125],[106,-159],[58,208],[45,19],[37,-202],[85,212],[154,-176],[60,18],[-52,117],[56,24],[137,-160],[42,54],[63,-268],[-15,-69],[55,-10],[11,-66],[88,46],[-32,-54],[63,4],[-30,-97],[71,44],[168,-217],[77,-33],[201,-327],[-4,-186],[46,49],[147,-390],[66,40],[47,-99],[59,6],[24,-118],[-28,-42],[56,-37],[-2,-45],[70,19],[18,68],[165,-188],[0,-85],[330,-207],[-7,-97],[-39,50],[-36,-20],[19,-274],[-160,-66],[44,-27],[-139,-678],[52,-184],[-37,-265],[24,-65],[-114,-34],[107,-284],[-80,-259],[-117,-112],[212,148],[39,114],[-10,634],[40,76],[281,-357],[82,-316],[10,277],[-132,210],[-42,127],[2,212],[-59,109],[74,262],[81,60],[51,25],[91,-179],[-76,285],[39,34],[104,-409],[-8,219],[113,-119],[-133,186],[20,241],[196,-340],[-101,358],[42,-8],[211,-387],[-113,366],[-186,190],[27,56],[340,106],[79,-116],[58,59],[141,-24],[236,-188],[462,-55],[0,-48840],[-1487,-849],[-2141,-806],[-1414,-150],[-543,70],[-474,151],[-546,-170],[-325,-221],[-582,-530],[-470,-171],[-461,-312],[-165,-39],[-285,-302],[-174,-117],[-1102,-314],[-144,-106],[-183,-228],[-115,-233],[-224,-727],[-47,-384],[-219,-118],[6,-99],[-224,-189],[-54,-247],[32,-35],[-271,-238],[-142,-31],[-85,-152],[-264,134],[-88,-6],[-184,-244],[-268,-106],[-4,205],[-169,216],[-131,44],[-101,-133],[-438,71],[-336,-44],[-80,-68],[2,-121],[-24,-10],[-275,123],[-174,16],[-194,-133],[6,-120],[-354,-48],[-44,42],[55,66],[-73,224],[-182,214],[-457,-232],[-250,101],[-65,-69],[-37,84],[-175,120],[-256,-7],[-144,43],[-354,-84],[-46,-96],[-168,84],[-1096,-109],[-340,-249],[-445,114],[-226,-64],[-183,91],[-212,-159],[-203,24],[-74,-40],[-474,-439],[-203,-446],[-101,-3],[100,-4],[9,-200],[149,-81],[-159,-71],[-132,131],[-57,-20],[-29,-230],[35,-19],[-61,-2],[-18,-74],[-77,113],[-122,-16],[-11,-178],[-59,-17],[-7,-45],[-70,9],[-9,97],[-81,35],[-476,101],[-106,-34],[5,-117],[-222,-18],[-122,-105],[-21,-140],[78,-45],[-128,-139],[-439,-176],[-173,-126],[-86,-183],[-7,-153],[55,-14],[12,-51],[-53,-52],[-150,74],[-267,-153],[-77,11],[77,-112],[-51,-133],[-43,85],[-127,27],[-318,-79],[32,178],[-60,24],[-1,-159],[-65,-53],[2,-56],[-130,26],[-24,-52],[132,-115],[24,126],[50,-147],[127,12],[41,-59],[-265,-46],[-462,233],[-88,-54],[-33,-191],[-40,-16],[-12,52],[-123,95],[-137,-18],[-266,201],[-57,-8],[-22,-62],[-283,77],[-97,-128],[-420,122],[-77,-131],[-331,144],[-299,-134],[-211,164],[-111,-34],[-477,396],[-561,110],[-119,352],[-601,697],[-199,171],[-346,232],[-337,103],[-203,-43],[-7,59],[79,69],[-65,10],[-25,-60],[-36,16],[45,-97],[18,-1],[-84,-154],[-239,358],[33,159],[-104,290],[3,482],[-35,199],[52,203],[-54,279],[115,186],[-53,300],[184,-109],[75,-161],[382,-90],[146,45],[130,90],[317,449],[143,393],[57,-10],[47,620],[-172,1284],[200,426],[21,-1],[16,-108],[-166,-177],[112,-433],[42,-58],[30,17],[2,83],[-131,399],[174,-89],[66,146],[-48,91],[-79,2],[68,362],[-13,105],[-68,97],[51,22],[15,84],[-127,197],[113,-11],[82,220],[-19,156],[-62,15],[55,75],[-66,156],[248,157],[30,-129],[-29,203],[-159,-38],[-33,-144],[-74,-44],[58,92],[-46,745],[-95,326],[-318,713],[-212,379],[-278,885],[-235,436],[-31,-5],[-249,893],[-37,22],[-34,501],[-47,59],[55,76],[-7,51],[-32,105],[-73,18],[26,209],[-111,321],[60,401],[-53,660],[85,553],[-271,1095],[-509,694],[-54,240],[-78,31],[83,63],[-39,440],[-136,340],[-456,760],[-322,354],[-150,758],[126,416],[-128,592],[-301,792],[-395,877],[-430,748],[-623,789],[6,167],[-137,317],[-173,238],[226,-115],[20,-147],[32,586],[32,70],[59,-934],[26,-29],[37,48],[27,-199],[56,18]],[[9544,25056],[130,65],[71,-69],[80,3],[14,130],[-223,19],[-75,-71],[3,-77]],[[33340,81825],[7,-61],[31,11],[-38,50]],[[24845,81137],[39,-9],[39,36],[-61,1],[-17,-28]],[[1151,51973],[-2,121],[29,18],[-30,19],[-31,-19],[34,-139]],[[6400,33958],[67,16],[67,116],[-80,-68],[11,-45],[-63,35],[-2,-54]],[[33662,83495],[-14,-55],[-45,140],[59,-85]],[[33362,83933],[-81,37],[-5,30],[86,-67]],[[33075,82823],[-10,-155],[-154,109],[-26,101],[23,236],[167,-291]],[[32367,84815],[-52,-71],[-27,64],[54,78],[25,-71]],[[30113,86246],[77,-16],[-7,35],[36,-100],[-106,81]],[[29682,86511],[-31,-33],[-12,59],[43,-26]],[[29648,86455],[-23,-67],[-205,20],[-24,59],[4,51],[39,8],[209,-71]],[[29181,86169],[-42,-65],[-47,84],[89,-19]],[[29002,86305],[-13,-57],[-33,-17],[46,74]],[[28946,86308],[-24,-13],[-26,52],[50,-39]],[[28729,86326],[-66,-83],[-18,9],[84,74]],[[28408,85184],[-50,-1],[-13,-72],[-70,116],[3,70],[48,24],[82,-137]],[[28400,85459],[-79,-46],[-28,16],[107,30]],[[28317,84864],[-22,-29],[-25,5],[47,24]],[[28297,85043],[-24,-36],[-29,2],[53,34]],[[28243,85129],[-56,-122],[-44,34],[76,160],[24,-72]],[[27781,84827],[-45,-75],[-40,-1],[22,196],[63,-120]],[[27360,84724],[-111,91],[40,94],[71,-185]],[[27270,84902],[-11,-29],[-33,13],[44,16]],[[27218,84687],[-100,6],[-14,46],[114,-52]],[[26745,84448],[-24,-19],[-29,30],[53,-11]],[[26733,84747],[-54,19],[36,3],[18,-22]],[[26730,84932],[-34,-11],[-23,-1],[57,12]],[[26692,82983],[-16,-28],[-41,-3],[57,31]],[[26690,83295],[-45,-55],[-8,17],[53,38]],[[26641,83026],[-75,-145],[-112,229],[48,62],[22,-133],[117,-13]],[[26609,84697],[-77,-186],[73,-138],[-144,-84],[10,-57],[-37,11],[2,69],[-61,-43],[-33,49],[7,232],[121,-57],[-5,135],[-69,35],[1,39],[92,66],[-20,54],[140,-125]],[[26593,83369],[-17,-40],[-27,12],[44,28]],[[26220,82280],[-88,-141],[-6,55],[94,86]],[[26141,84636],[-44,-22],[24,115],[20,-93]],[[26132,84858],[-35,-11],[-15,20],[50,-9]],[[26084,84980],[27,9],[-6,-85],[-21,76]],[[26109,83070],[-30,-91],[-41,-34],[36,164],[35,-39]],[[26107,82234],[-8,-26],[-64,-35],[72,61]],[[26060,83101],[-38,-88],[-11,23],[49,65]],[[26053,83147],[-42,-59],[-56,155],[14,46],[-80,-49],[-15,31],[97,55],[-9,131],[63,-125],[-35,-123],[63,-62]],[[25852,83164],[-26,-23],[-22,19],[48,4]],[[25832,82487],[-98,-145],[-46,54],[41,170],[103,-79]],[[25725,82602],[-13,-17],[-40,10],[53,7]],[[25535,79230],[-61,-3],[-27,27],[88,-24]],[[25499,79288],[-26,-22],[-40,25],[66,-3]],[[25396,80940],[-16,-31],[-42,-15],[58,46]],[[25394,82077],[-191,-137],[-91,-12],[-24,64],[168,167],[-117,-20],[-20,54],[-12,-63],[28,-12],[-61,-42],[11,94],[-31,-13],[-48,-103],[-32,145],[122,62],[-5,59],[45,29],[-89,33],[166,136],[-33,-200],[73,6],[-21,-88],[162,-159]],[[25362,82413],[-48,-26],[-13,20],[61,6]],[[25320,81974],[-40,-25],[-17,-1],[57,26]],[[25268,80584],[-85,-157],[-55,-4],[140,161]],[[24994,80575],[-46,-205],[14,85],[32,120]],[[24982,79292],[-64,-52],[-4,16],[68,36]],[[24975,82357],[-236,-62],[-21,36],[213,175],[44,-149]],[[24788,82096],[-18,-24],[-63,67],[81,-43]],[[24734,82271],[-69,-77],[-32,15],[101,62]],[[24597,82354],[-98,-52],[-21,3],[1,62],[73,44],[45,-57]],[[24538,79207],[-78,12],[-16,77],[94,-89]],[[24485,80416],[-74,11],[-34,118],[108,-129]],[[24288,79600],[-75,-25],[-26,21],[34,64],[67,-60]],[[24191,80052],[-49,-28],[-39,-6],[38,35],[-16,36],[66,-37]],[[24189,79866],[-69,14],[0,24],[69,-38]],[[23846,79521],[-93,58],[-77,60],[170,-118]],[[23739,79736],[-28,10],[-22,24],[50,-34]],[[23730,79512],[-50,19],[-13,59],[63,-78]],[[23619,79609],[-38,-66],[-29,70],[58,63],[9,-67]],[[23537,79903],[-68,-38],[-180,135],[229,-5],[19,-92]],[[23252,79116],[-38,-5],[-56,51],[94,-46]],[[23196,80037],[-32,-21],[-87,73],[119,-52]],[[23173,79297],[-50,32],[-13,44],[63,-76]],[[23066,79624],[-33,0],[-38,63],[71,-63]],[[23051,79600],[-15,-36],[-43,29],[58,7]],[[23032,80099],[-84,-25],[-6,51],[90,-26]],[[23027,27039],[-60,-117],[-1,27],[61,90]],[[23005,80190],[-47,-11],[-47,76],[94,-65]],[[22996,79554],[-47,-34],[-49,55],[96,-21]],[[22976,78604],[-34,-36],[-10,70],[44,-34]],[[22961,79574],[-74,26],[20,-72],[-36,-30],[-22,118],[-70,44],[22,58],[160,-144]],[[22960,78555],[-109,-71],[-52,48],[161,23]],[[22805,79541],[-46,-24],[-8,21],[54,3]],[[22776,80069],[-8,-74],[-39,75],[47,-1]],[[22728,76484],[-44,8],[-9,54],[53,-62]],[[22725,79943],[-72,7],[9,57],[17,2],[46,-66]],[[22718,80080],[-28,13],[-37,30],[65,-43]],[[22677,78792],[-27,2],[-17,29],[44,-31]],[[22657,78633],[-7,-64],[-86,173],[93,-109]],[[22584,79275],[-46,8],[-3,75],[49,-83]],[[22570,79855],[-33,-15],[-34,41],[67,-26]],[[22496,79933],[-32,-7],[-26,34],[58,-27]],[[22490,80229],[-41,-37],[-38,7],[79,30]],[[22299,79142],[-27,-44],[-30,-7],[57,51]],[[22279,27765],[-20,-91],[-108,26],[128,65]],[[22268,79184],[-75,-118],[-22,24],[27,56],[-24,49],[94,-11]],[[22090,79062],[-54,-8],[-29,34],[83,-26]],[[20210,27660],[-26,-61],[-6,-47],[-33,101],[65,7]],[[19919,77848],[-30,-17],[-44,11],[74,6]],[[19703,28127],[-49,-22],[-5,38],[54,-16]],[[19669,27951],[-39,-53],[-23,16],[62,37]],[[18815,27966],[-24,-59],[-28,30],[52,29]],[[12125,67795],[-37,-33],[-24,14],[61,19]],[[12036,25342],[-43,-39],[-65,72],[108,-33]],[[11134,24927],[-56,-5],[-10,19],[66,-14]],[[10710,67202],[-26,-46],[-37,-21],[63,67]],[[10428,66880],[-21,-77],[-50,31],[13,103],[58,-57]],[[9010,66911],[-67,-65],[-44,8],[111,57]],[[8715,67482],[-225,120],[-37,71],[262,-191]],[[8571,67306],[-107,-115],[-45,6],[82,212],[68,62],[-54,-191],[56,26]],[[8468,67464],[-30,-94],[-58,-41],[88,135]],[[8443,67348],[-61,-152],[-27,8],[88,144]],[[8162,66829],[-48,-50],[-2,29],[50,21]],[[8125,67005],[-66,-108],[-32,-32],[98,140]],[[8116,67107],[-89,-171],[-83,15],[172,156]],[[7992,67325],[-65,-78],[-50,44],[93,92],[22,-58]],[[7920,67030],[-72,-132],[-194,33],[266,99]],[[6002,33175],[-42,-52],[-44,256],[86,-204]],[[5754,67530],[-33,4],[-53,60],[86,-64]],[[5695,33823],[-110,-28],[-125,-39],[133,113],[102,-46]],[[5518,66571],[-121,-378],[-216,-81],[-31,90],[32,152],[241,410],[78,-38],[17,-155]],[[5493,64363],[-60,-101],[-38,23],[98,78]],[[5216,65895],[-29,-23],[-16,75],[45,-52]],[[4540,64465],[-18,-20],[-98,17],[116,3]],[[3830,63978],[-21,16],[-51,82],[72,-98]],[[3491,62869],[-15,-157],[-72,143],[21,54],[66,-40]],[[3170,63971],[-49,-69],[-25,2],[74,67]],[[3081,63861],[-98,-132],[61,105],[37,27]],[[2694,61591],[-13,-77],[-41,-46],[54,123]],[[2332,42839],[-94,-246],[-17,23],[111,223]],[[2151,51605],[-105,37],[-43,72],[5,103],[54,29],[89,-241]],[[1767,44217],[-55,-55],[-2,44],[57,11]],[[1689,44111],[-49,-65],[-8,91],[57,-26]],[[1543,54504],[-14,-1],[-33,41],[47,-40]],[[667,50964],[-44,-169],[-174,408],[-189,265],[-258,836],[-2,339],[91,134],[34,-49],[78,-5],[-28,-180],[242,-928],[75,-22],[-64,-100],[22,-160],[31,105],[37,-6],[149,-468]],[[515,54810],[-71,-498],[-32,-101],[20,415],[63,260],[20,-76]],[[432,53999],[-113,-620],[-14,122],[55,320],[-16,149],[67,226],[21,-197]],[[76993,9322],[-284,-168],[-88,192],[-180,-114],[-67,89],[-120,-73],[-28,60],[-91,-51],[-221,159],[212,184],[239,-49],[41,112],[121,-67],[137,145],[204,-234],[59,-15],[66,-170]],[[68757,7532],[-86,17],[-69,106],[56,43],[-46,169],[81,103],[75,-20],[60,142],[-55,541],[85,88],[100,-186],[-12,-110],[42,102],[309,-146],[111,45],[308,-275],[99,55],[-123,72],[167,-28],[150,41],[-88,-61],[93,15],[3,271],[104,-150],[-92,-98],[6,-39],[54,-46],[-30,97],[90,-163],[271,-106],[-24,-23],[165,118],[74,-162],[397,-104],[26,-117],[-97,31],[302,-239],[11,53],[78,5],[100,-119],[4,34],[72,9],[420,-287],[213,-38],[0,-63],[10,130],[168,-14],[-36,-76],[88,71],[-20,-171],[80,-34],[-32,179],[324,91],[27,51],[89,-350],[26,98],[47,-157],[-24,145],[-38,34],[68,114],[-92,-16],[-5,51],[322,207],[-12,33],[80,-61],[51,17],[112,-171],[-123,-35],[16,-45],[79,72],[69,-173],[40,20],[-50,87],[94,38],[98,-57],[-55,-95],[104,-168],[63,25],[-9,-167],[75,-35],[62,-101],[46,51],[-32,57],[-134,29],[80,94],[-151,138],[-2,65],[-71,-16],[55,88],[61,-24],[-141,154],[-157,2],[-89,239],[374,77],[81,124],[52,14],[297,-149],[264,261],[49,-47],[93,53],[121,-209],[72,-1],[-81,26],[96,0],[107,68],[294,391],[93,69],[80,-114],[110,8],[-12,-53],[264,-20],[66,15],[-42,-1],[5,42],[131,210],[-19,149],[304,-85],[130,-173],[-59,2],[31,-23],[209,-29],[219,-412],[55,-15],[-103,-106],[-11,-95],[-6,96],[-96,-64],[105,-37],[-62,-181],[33,-124],[-69,-65],[185,-200],[-66,-123],[-57,75],[-74,-149],[-25,14],[78,-48],[189,174],[-173,-268],[-18,-380],[-47,48],[146,-260],[8,-133],[-121,-540],[128,-320],[-74,-190],[-10,-164],[121,-185],[-35,-135],[-58,-50],[129,-41],[-92,-277],[-137,98],[57,200],[-40,23],[85,115],[-65,46],[-45,-20],[-58,139],[-138,-15],[186,250],[-99,-95],[-74,66],[-65,-133],[69,-23],[-153,-84],[253,-12],[52,-38],[-241,16],[-168,-76],[51,19],[33,-39],[-30,-84],[27,-39],[-152,-208],[4,-134],[-42,-76],[48,-10],[19,-100],[-101,-162],[40,-81],[-47,-23],[72,-1],[-29,-175],[29,-25],[-90,-29],[-43,-96],[-70,99],[-7,-85],[-83,-19],[152,-149],[27,-135],[-61,23],[72,-72],[-202,-434],[31,-77],[-42,89],[-64,-134],[21,-39],[-115,-53],[-2,-31],[-149,48],[-114,-44],[-49,71],[-88,24],[-2,67],[-164,-4],[-56,-49],[-18,-137],[101,-139],[27,-77],[-72,-103],[-221,-85],[-58,217],[36,37],[94,-202],[36,17],[21,130],[-72,10],[2,41],[98,108],[-13,42],[-109,12],[-30,-90],[-27,3],[19,87],[-28,71],[-113,25],[13,78],[-161,207],[-42,-3],[-4,141],[-13,-78],[-125,92],[-76,-72],[74,28],[118,-134],[66,-10],[-59,-72],[143,-50],[22,-198],[63,-41],[-80,-267],[43,-132],[-65,-23],[-63,149],[-29,-45],[-35,-144],[99,-43],[-69,-99],[-50,-1],[32,-294],[-40,-129],[-162,-45],[-55,87],[19,36],[-135,-6],[6,68],[57,27],[-76,138],[-45,-180],[-112,101],[-56,2],[131,413],[-33,-33],[-172,-305],[325,-368],[-43,-6],[-33,-117],[-44,59],[-88,-67],[-47,15],[166,-66],[-101,-201],[30,-40],[-171,5],[-52,54],[-17,-91],[175,-43],[12,-52],[-64,32],[-66,-28],[4,-98],[72,71],[-52,-132],[-63,8],[-14,-47],[-36,88],[-51,-122],[101,-67],[-6,-55],[-205,-125],[10,81],[-99,43],[-173,-96],[-76,113],[-22,-38],[-132,133],[-11,54],[-540,89],[-118,-93],[-38,134],[-123,38],[-14,-143],[-104,53],[-5,48],[-37,-12],[11,-70],[-80,13],[-1,-97],[-138,14],[-32,-54],[-5,310],[-61,77],[-7,89],[-165,75],[121,74],[36,-112],[-41,131],[26,58],[209,-123],[18,21],[-72,58],[156,-32],[21,-149],[9,-6],[-21,94],[91,-17],[-46,56],[147,-76],[18,194],[-92,21],[-28,-34],[-17,104],[-69,-159],[-53,-8],[-103,172],[-33,-92],[21,-37],[-120,-5],[-109,158],[58,134],[-136,69],[24,-99],[-96,-68],[87,4],[5,-96],[-185,-43],[-96,279],[24,28],[-100,47],[-79,206],[24,17],[-136,29],[19,163],[-262,231],[-144,-60],[-5,104],[26,21],[-148,218],[-152,536],[1,95],[-224,101],[90,147],[-112,142],[-64,485],[-59,80],[39,145],[-105,235],[91,-9],[105,-195],[-5,-62],[99,-24],[39,33],[-16,-102],[229,-149],[81,-95],[7,-95],[146,-16],[-23,24],[96,225],[-98,-50],[-39,152],[-29,-124],[-251,328],[-19,167],[36,-3],[-101,100],[17,27],[-66,-4],[32,-67],[-61,-60],[-1,-89],[-144,25],[79,147],[9,162],[-145,476],[16,34],[-288,239],[-187,346],[-125,42],[-35,87],[302,261],[-164,-80],[-117,-113],[-293,645],[-86,71],[96,76],[-231,466],[-11,450],[-41,66],[42,18]],[[70602,3485],[168,-27],[21,22],[-189,5]],[[70442,3491],[11,-171],[26,-73],[0,247],[-37,-3]],[[72904,294],[-33,165],[-41,59],[-18,-132],[92,-92]],[[75941,3869],[-131,-73],[-10,-20],[67,-40],[74,133]],[[73934,6643],[10,-78],[116,-156],[13,19],[-139,215]],[[75094,2331],[-23,172],[-119,-4],[-9,-65],[-218,91],[101,-153],[211,5],[57,-46]],[[74944,1984],[-38,-9],[-20,-11],[43,-52],[15,72]],[[73897,1747],[-39,90],[-69,-17],[108,-73]],[[71947,7209],[-43,14],[-24,5],[67,-19]],[[71440,1258],[49,174],[-41,-37],[-8,-137]],[[70891,3490],[15,-350],[84,-39],[-82,44],[15,171],[-32,174]],[[70386,4222],[121,9],[28,31],[-149,-40]],[[70294,4203],[49,-5],[8,5],[-57,0]],[[69986,4686],[46,22],[-31,10],[-15,-32]],[[69592,5838],[37,-67],[48,3],[-85,64]],[[76707,9083],[-20,1],[-28,45],[48,-46]],[[76702,10729],[-53,-25],[-17,37],[70,-12]],[[76699,3782],[-237,69],[-1,33],[135,41],[103,-143]],[[75867,11367],[466,-642],[247,-38],[-11,-298],[-136,-155],[121,14],[18,103],[101,-370],[-110,-67],[-53,62],[-105,-2],[-54,-114],[-137,-70],[-165,71],[-84,419],[-92,48],[-24,-30],[-43,187],[-162,33],[83,71],[4,163],[-41,103],[-266,49],[-20,49],[120,112],[87,-5],[53,182],[-44,69],[79,-31],[124,121],[44,-34]],[[75866,11366],[11,-120],[2,40],[50,-58],[-63,138]],[[76655,9751],[-42,-16],[-61,25],[37,78],[66,-87]],[[76527,9852],[-71,-6],[-13,40],[84,-34]],[[76487,9169],[-116,-237],[8,-61],[-157,52],[-27,22],[18,80],[-56,16],[330,128]],[[76315,2890],[-190,-38],[26,-172],[-172,-61],[114,188],[-123,46],[125,263],[115,-41],[105,-185]],[[76226,8452],[-42,-24],[-40,8],[82,16]],[[76004,9556],[-66,-43],[-31,5],[97,38]],[[75974,1225],[-248,89],[-5,153],[-59,26],[-9,62],[25,-286],[-65,55],[-97,-159],[-31,12],[-86,118],[-74,9],[-57,162],[135,77],[-12,50],[-198,16],[-68,240],[130,44],[-32,140],[31,26],[114,-66],[-28,-206],[191,-53],[15,-41],[69,87],[32,-78],[26,99],[114,22],[-169,8],[-20,62],[41,27],[-98,58],[118,45],[-110,26],[15,87],[-41,43],[199,-4],[28,-41],[-9,77],[-92,21],[66,94],[104,-100],[67,37],[62,-290],[-158,-166],[99,-330],[73,-12],[-91,-153],[103,-87]],[[75974,11607],[-43,-43],[-58,8],[101,35]],[[75834,11466],[-121,-9],[-7,36],[128,-27]],[[75815,9802],[-22,-35],[-36,9],[58,26]],[[75752,9710],[-60,-71],[-97,65],[157,6]],[[75489,10464],[-132,-178],[82,217],[50,-39]],[[75179,8297],[-22,-56],[-37,-18],[59,74]],[[74223,599],[-43,-151],[-51,16],[-28,-39],[-114,199],[7,46],[137,-151],[42,18],[-1,307],[73,-86],[169,408],[58,-154],[87,113],[-36,107],[97,91],[-15,34],[-223,28],[166,103],[7,-28],[11,79],[-118,0],[97,144],[35,-23],[142,-464],[-190,-122],[-50,-89],[37,-177],[60,43],[32,-63],[-132,-282],[6,-98],[-63,-39],[-68,82],[-36,-14],[-2,152],[-93,10]],[[74223,607],[50,1],[35,24],[-85,-25]],[[74566,12140],[-21,-94],[-99,41],[-4,24],[124,29]],[[74444,12180],[-32,-75],[-64,-6],[71,50],[-40,54],[65,-23]],[[73828,1604],[-15,-33],[-29,-53],[44,86]],[[73043,12146],[-38,-49],[-6,18],[44,31]],[[72436,136],[-57,-32],[-31,45],[88,-13]],[[69679,8280],[-127,32],[-3,91],[130,-123]],[[69299,8778],[-3,130],[48,-127],[-44,-5],[17,-78],[66,-26],[-28,85],[245,-247],[-377,-76],[-48,180],[124,164]],[[69388,9348],[-40,-99],[-119,-69],[-134,119],[113,158],[146,-8],[34,-101]],[[69004,9373],[-36,-476],[-40,-72],[-48,38],[-29,221],[-27,20],[180,269]],[[67532,11162],[32,-57],[-49,-203],[71,-124],[-70,-321],[-390,-330],[-46,106],[-63,14],[-37,158],[69,24],[4,176],[-127,227],[74,238],[-50,343],[170,135],[50,257],[229,-131],[126,-129],[7,-383]],[[67522,11131],[-33,59],[30,-81],[3,22]],[[54296,78743],[-4,-27466]],[[54292,51277],[-19487,-6],[1,32311],[242,-160],[-10,-159],[49,117],[126,-111],[-42,-187],[67,-207],[-92,-218],[81,111],[77,-48],[-34,64],[74,181],[-28,69],[42,99],[1,-82],[98,74],[-79,11],[-69,71],[-11,491],[550,-295],[263,-486],[-101,-181],[14,-27],[136,121],[127,-13],[-96,292],[49,41],[-91,85],[4,132],[-65,-40],[-202,514],[152,-167],[48,-126],[57,45],[-89,224],[118,-132],[370,-41],[217,246],[-195,-144],[-122,-2],[-15,40],[131,144],[-164,-98],[-134,89],[-199,364],[6,63],[236,10],[171,216],[-221,-122],[-310,82],[-82,143],[75,109],[-87,-103],[-62,159],[44,-130],[-46,-40],[-160,248],[-49,-12],[22,249],[97,170],[-5,127],[222,316],[-71,230],[80,-80],[20,67],[22,-17],[-17,-209],[31,-42],[55,176],[60,-21],[31,63],[-40,107],[16,63],[24,-71],[68,-34],[175,98],[53,111],[3,163],[-69,117],[172,260],[71,788],[-22,48],[147,-4],[-35,68],[61,114],[27,-215],[102,-62],[111,7],[289,222],[203,341],[92,14],[13,84],[-259,372],[-104,40],[54,670],[114,67],[115,-110],[198,169],[30,639],[112,-91],[-23,114],[146,67],[114,-83],[6,-113],[42,-36],[47,50],[56,-50],[-29,-72],[129,47],[-9,-121],[40,75],[-48,112],[147,-135],[39,102],[68,17],[-71,-1],[-34,-26],[-24,18],[49,67],[-60,-50],[-166,108],[-25,-40],[-27,93],[-60,53],[80,32],[8,-108],[42,150],[-36,48],[32,40],[-66,-53],[-14,44],[47,233],[37,0],[-38,141],[76,15],[-98,119],[89,74],[316,-163],[-17,-131],[-65,-127],[112,149],[-10,-206],[-98,-104],[6,-45],[101,110],[3,-175],[26,-7],[-8,214],[48,24],[8,-123],[4,70],[55,8],[76,-213],[-14,-87],[21,79],[41,-90],[21,17],[-56,146],[183,-68],[-95,145],[-83,15],[36,53],[-85,88],[97,28],[3,-71],[31,92],[55,-84],[-38,150],[35,45],[-107,-48],[-11,43],[54,44],[-145,55],[-63,-67],[-10,159],[173,224],[300,-90],[44,38],[-58,123],[-33,-52],[38,267],[-75,183],[75,64],[300,-78],[115,-179],[62,43],[-48,37],[82,379],[66,100],[56,-438],[225,-239],[755,21],[225,156],[130,-169],[282,-89],[335,316],[30,72],[87,-158],[162,74],[79,-109],[114,261],[244,140],[3,36],[48,-57],[110,59],[25,534],[31,34],[-40,197],[-121,105],[148,184],[12,107],[-51,-101],[-79,-28],[-205,139],[16,135],[237,-55],[-149,134],[11,156],[-115,132],[-13,78],[-304,120],[-112,-69],[-137,29],[-270,-246],[-173,168],[55,145],[-253,94],[101,77],[-51,89],[-106,-43],[58,109],[-62,-14],[-119,93],[-188,-94],[-23,27],[95,95],[-26,43],[99,-53],[33,28],[-88,189],[115,-22],[25,-45],[7,155],[97,-155],[6,-73],[32,45],[35,-25],[55,100],[-52,122],[67,3],[-50,120],[49,30],[115,-219],[48,69],[66,-163],[32,60],[-29,-343],[49,-58],[31,154],[72,-361],[12,68],[70,-48],[-55,140],[16,42],[89,-35],[11,67],[-84,112],[-54,-64],[65,280],[-145,304],[111,-23],[209,-426],[-40,295],[160,102],[-12,71],[106,-268],[-18,-254],[51,-11],[79,255],[37,-19],[56,-117],[65,-41],[-43,-79],[50,20],[9,-166],[71,23],[83,-153],[79,-46],[35,-195],[67,-111],[138,-10],[237,360],[118,-89],[27,120],[-95,129],[114,25],[277,-498],[67,-52],[158,-527],[89,-77],[197,-35],[-63,29],[196,108],[24,-71],[-73,-4],[-23,-113],[24,-33],[140,51],[37,58],[-9,-103],[131,-100],[162,121],[-8,-153],[156,11],[-15,-71],[34,-26],[145,157],[30,-16],[-47,59],[148,-25],[152,141],[-32,27],[229,-86],[35,34],[53,-81],[-254,-197],[14,-78],[180,-122],[-10,-60],[266,211],[103,-125],[-7,-127],[113,129],[145,-382],[-69,-208],[13,-42],[184,235],[-16,143],[531,-269],[247,82],[110,99],[69,152],[129,39],[110,-286],[100,-40],[-5,-147],[32,-55],[248,-80],[183,-305],[192,78],[148,-170],[-111,204],[228,0],[100,-103],[64,41],[-258,167],[172,75],[7,112],[101,54],[29,62],[122,4],[-37,-54],[21,-35],[201,81],[24,76],[110,-119],[181,178],[555,253],[-169,-93],[-393,-535],[4,-96],[149,-231],[-23,-92],[202,331],[168,140],[30,-100],[38,103],[101,-7],[188,258],[-255,-462],[74,-138],[-27,-27],[215,137],[26,-26],[-195,-424],[96,-30],[-26,-164],[-31,-26],[57,15],[13,-84],[92,163],[47,-79],[160,37],[-2,-76],[197,73],[22,-32],[223,578],[-8,79],[-48,101],[-235,-51],[-20,75],[28,14],[-130,-27],[-10,84],[172,153],[44,132],[157,17],[163,292],[317,119],[4,119],[37,-113],[-234,-130],[2,-105],[-37,51],[-15,-25],[87,-153],[50,152],[41,-10],[121,-271],[-20,-179],[46,-163],[102,-97],[3,-99],[205,-6],[52,107],[-145,128],[180,92],[221,-245],[45,-7],[62,-255],[-28,-31],[126,-3],[-433,-523],[-14,-88],[-26,87],[76,97],[-3,124],[-128,-84],[-31,59],[27,-226],[32,6],[-171,-164],[169,113],[31,-75],[-57,-5],[-97,-155],[7,-229],[-89,0],[-76,62],[-20,-363],[29,-72],[-156,288],[-40,-178],[25,-15],[-155,74],[36,-58],[-20,-117],[345,-317],[15,-115],[50,-41],[-84,-38],[-25,145],[-81,-98],[9,-50],[-56,156],[-58,-79],[-166,40],[174,-118],[-5,-96],[73,-20],[-77,-278],[-66,37],[-46,-81],[-25,-226],[-61,87],[-235,-312],[-7,217],[86,-7],[44,74],[-55,391],[19,64],[-82,106],[-91,-214],[64,-36],[-31,-72],[19,-43],[-70,-25],[-66,136],[-20,-70],[-55,21],[59,-215],[-58,25],[-37,-126],[-58,41],[-28,-27],[43,-112],[-103,214],[41,179],[-17,73],[-199,-331],[19,-84],[-32,-135],[-76,275],[-72,-22],[-33,-210],[-33,120],[-65,-43],[-83,-275],[100,-159],[101,45],[-90,-188],[-127,111],[-28,-33],[20,-353],[-73,-85],[98,-227],[58,31],[31,-51],[-92,-105],[76,-102],[91,11],[206,286],[68,-31],[-307,-866],[-68,-107],[-67,-513],[54,-68],[-237,-104],[-126,-162],[-73,31],[60,-74],[-135,-298],[6,-73],[-110,4],[-180,-401],[-39,-187],[49,-80],[-218,-120],[-52,-119],[-75,27],[63,-428],[147,-299],[219,-201],[167,-21],[703,-682],[559,-375],[66,-348],[102,-156],[0,-106],[52,37],[153,-37],[310,-361],[142,128],[50,98],[174,-69],[-90,-237],[-86,25],[153,-254],[-49,-136],[33,-81],[50,-3],[91,125],[-23,-78],[135,49],[282,-113],[-88,112],[141,142],[152,-208],[447,-261],[256,-352],[773,-287],[287,-554],[301,-354]],[[39641,91175],[-26,-34],[7,-21],[19,55]],[[51955,90946],[-89,-62],[-13,-41],[102,103]],[[51013,91838],[-44,-37],[36,2],[8,35]],[[52358,80986],[-69,-214],[-75,31],[-152,252],[19,106],[-105,-41],[21,106],[-46,18],[93,127],[49,-100],[23,29],[-7,233],[196,-207],[-18,-262],[71,-78]],[[51727,86684],[53,92],[3,102],[140,-55],[41,-124],[-144,-309],[-140,-3],[-31,-58],[-36,-195],[98,-50],[0,-51],[-129,-89],[10,-59],[-34,62],[-35,-13],[-29,-288],[41,-59],[128,-11],[33,134],[141,-185],[107,114],[-8,98],[114,-80],[-64,-112],[29,-210],[36,-19],[-142,-42],[12,-39],[-322,152],[-229,-111],[-460,291],[-244,-145],[-1,95],[256,261],[-75,428],[61,248],[-58,174],[187,-28],[78,162],[75,-131],[17,91],[138,44],[-130,279],[127,-3],[-42,-51],[32,-42],[101,118],[33,81],[47,-40],[28,40],[-18,-191],[-85,-63],[35,-103],[83,12],[-37,-189],[78,10],[115,-68],[65,38],[18,81],[-18,36],[-49,-27]],[[52047,87223],[-26,-50],[-54,-3],[80,53]],[[51941,87117],[-28,-44],[-30,5],[58,39]],[[51922,81521],[-52,-140],[-76,-30],[13,65],[-47,18],[81,323],[81,-236]],[[51783,81554],[-128,-15],[-17,11],[42,54],[87,13],[16,-63]],[[51776,92924],[-27,-34],[-33,8],[60,26]],[[51774,81236],[-98,7],[29,-115],[-157,-99],[7,323],[128,5],[91,-121]],[[51759,81108],[-49,-45],[-13,12],[62,33]],[[51754,91571],[-59,-9],[-8,79],[2,50],[58,46],[7,-166]],[[51736,81478],[-62,-16],[-28,3],[90,13]],[[51622,94772],[-100,-481],[-115,-90],[37,-69],[-128,-104],[5,-129],[-194,-324],[-117,-47],[-20,22],[235,361],[86,333],[140,51],[42,72],[0,124],[-28,16],[61,28],[-46,51],[57,-14],[15,106],[-46,18],[116,76]],[[51613,94841],[-31,-45],[-24,37],[55,8]],[[51453,92468],[-40,-45],[-58,-9],[98,54]],[[51441,87129],[-36,-76],[-14,15],[50,61]],[[51438,81472],[-16,-20],[-59,18],[75,2]],[[51321,92703],[-103,-140],[-148,-47],[49,129],[83,-53],[119,111]],[[51299,81618],[-59,-262],[-145,-26],[-61,31],[66,327],[90,1],[26,58],[83,-129]],[[51267,87134],[-24,-31],[-34,2],[58,29]],[[51136,86801],[-47,-61],[-110,134],[88,139],[45,-14],[24,-198]],[[51045,92538],[-68,-290],[-23,21],[91,269]],[[50989,93495],[-54,-186],[-162,-98],[-17,90],[32,-46],[201,240]],[[50957,92226],[-12,-37],[-41,-6],[53,43]],[[50898,92300],[-100,-80],[-41,11],[93,71],[-4,68],[52,-70]],[[50830,86968],[-36,8],[-8,49],[44,-57]],[[50779,93159],[-174,-169],[-15,56],[-54,4],[-7,-120],[-82,27],[-139,-116],[22,151],[132,-14],[20,132],[55,81],[35,-89],[73,-2],[-43,69],[98,-25],[44,114],[35,-99]],[[50770,86644],[-9,-47],[-72,-6],[42,97],[39,-44]],[[50281,91792],[-31,82],[129,-4],[-7,77],[62,-103],[117,98],[22,79],[76,-51],[-258,-196],[-7,-48],[-144,9],[-21,36],[62,21]],[[50616,86909],[-104,-39],[65,-114],[-51,8],[-27,-191],[-105,-11],[-29,249],[-89,-50],[51,-143],[-87,-4],[-49,58],[16,246],[132,-50],[16,206],[40,36],[118,-25],[103,-176]],[[50553,87706],[-61,-5],[-12,56],[73,-51]],[[50500,87315],[-50,-17],[-13,35],[63,-18]],[[50239,87936],[50,-11],[120,-203],[-139,-46],[56,-115],[-59,-157],[-28,532]],[[50300,91399],[-91,-29],[-20,27],[37,64],[74,-62]],[[50299,92831],[-53,-84],[-12,41],[65,43]],[[50198,87694],[-56,-23],[-18,-30],[17,113],[57,-60]],[[50117,91144],[-50,-99],[0,76],[50,23]],[[50084,92957],[-162,-180],[-67,55],[160,166],[69,-41]],[[50065,91655],[-42,-170],[-4,163],[46,7]],[[49947,92381],[-101,-155],[-9,72],[110,83]],[[49915,92713],[-82,-78],[-6,42],[88,36]],[[49389,92133],[321,385],[36,-12],[-76,118],[25,35],[112,-56],[21,-81],[-173,-220],[-131,-251],[-121,-31],[-15,-76],[-368,-198],[64,346],[82,-71],[75,115],[148,-3]],[[49461,83594],[-9,-77],[-167,-6],[84,200],[92,-117]],[[49162,84695],[-48,-58],[-11,75],[59,-17]],[[48062,92160],[-142,-79],[-21,40],[163,39]],[[47803,91683],[-29,-7],[-28,82],[57,-75]],[[47777,91846],[-66,-85],[-112,120],[178,-35]],[[47644,91685],[-53,-135],[-78,33],[-6,160],[-40,81],[177,-139]],[[47505,91876],[-30,-37],[-53,51],[83,-14]],[[47432,91819],[-72,34],[0,47],[72,-81]],[[44534,93369],[-166,-45],[-73,-48],[41,108],[-26,51],[73,-6],[93,76],[58,-136]],[[44509,93065],[-119,-39],[-12,-47],[-13,59],[-58,-24],[16,-117],[-55,-23],[-45,169],[129,113],[157,-91]],[[43502,94658],[-49,-58],[-35,127],[84,-69]],[[43292,94364],[-103,37],[-32,29],[130,18],[5,-84]],[[43199,94719],[-14,-40],[-39,5],[53,35]],[[43040,93725],[-50,-2],[-11,39],[61,-37]],[[42777,94307],[-47,-66],[-37,3],[84,63]],[[42572,94892],[59,-414],[-58,-29],[-17,-60],[111,-76],[-61,-53],[-32,-439],[-97,300],[-159,278],[87,54],[7,133],[-60,41],[-50,133],[179,-58],[42,213],[49,-23]],[[42214,91609],[-23,-62],[-52,-2],[-111,155],[142,27],[44,-118]],[[42003,93165],[-21,-55],[-41,40],[17,66],[45,-51]],[[41624,93093],[-34,-61],[-49,19],[23,162],[60,-120]],[[37840,93799],[-24,-10],[-15,59],[50,130],[-95,147],[20,233],[63,14],[205,-327],[124,35],[89,-66],[20,-93],[-103,-180],[26,-42],[191,179],[107,-516],[36,126],[220,-198],[-196,322],[-80,3],[17,120],[311,91],[106,131],[291,-170],[42,71],[-22,73],[111,41],[-6,-82],[47,69],[-51,23],[55,120],[76,26],[44,-184],[42,-63],[44,70],[3,-96],[40,112],[-80,7],[29,195],[158,135],[82,-113],[-41,-116],[19,-18],[105,71],[59,-140],[45,116],[75,-22],[61,-424],[78,82],[93,-199],[-169,-133],[10,-320],[-218,78],[-76,-285],[-116,-176],[-430,-280],[-228,-282],[-59,-20],[-188,248],[-382,169],[-14,101],[-405,310],[3,264],[-135,179],[-64,405]],[[39428,91913],[-51,-34],[-84,26],[135,8]],[[39409,91776],[-45,-46],[-96,17],[141,29]],[[39275,91840],[-70,-61],[-66,18],[136,43]],[[39239,91623],[-25,-46],[-52,28],[77,18]],[[37422,92849],[30,57],[180,-181],[-103,168],[15,39],[-161,55],[10,368],[129,-62],[13,-98],[48,91],[-114,160],[-48,-78],[-131,86],[231,306],[-7,88],[111,14],[75,67],[-33,-43],[169,-266],[-52,-239],[189,-197],[10,-265],[375,-264],[-82,-204],[-217,-9],[-414,172],[-570,-154],[-54,78],[20,119],[103,-36],[-42,51],[33,238],[175,-104],[97,161],[15,-118]],[[38148,89902],[-129,360],[70,66],[-31,-153],[90,-273]],[[37910,90264],[-38,-36],[-25,53],[63,-17]],[[37870,90220],[-33,-20],[-19,43],[52,-23]],[[37854,90182],[-15,-21],[-36,37],[51,-16]],[[37828,90128],[-61,-45],[-8,50],[69,-5]],[[37207,88403],[-54,30],[13,50],[24,-4],[17,-76]],[[37132,88545],[-119,-25],[-4,200],[20,-115],[103,-60]],[[36389,83800],[-74,-15],[-59,73],[133,-58]],[[78980,24188],[-102,-94]],[[78878,24094],[-314,18]],[[78564,24112],[-132,-202]],[[78432,23910],[-32,-405],[24,-112],[-140,19],[68,-321],[-30,-433],[-68,-85],[-33,-132],[-194,72],[-108,123]],[[77919,22636],[-50,389],[-67,-121],[-139,167]],[[77663,23071],[-62,604]],[[77601,23675],[98,540],[678,538]],[[78377,24753],[190,-252],[-8,-53],[73,22],[72,-150],[276,-132]],[[78447,24229],[-152,23],[-26,-4],[178,-19]]]}